{"name":"Град Ужице","other_names":{"name:el":"Πόλη Ούζιτσε","name:en":"City of Užice","name:ru":"Ужице","name:sk":"Užice","name:sr":"Град Ужице","name:sr-Latn":"Grad Užice","official_name":"Град Ужице","name:am":"ኡዚዝ","name:ar":"أوزيتسه","name:be":"Ужыцкае","name:bn":"উজিস","name:de":"Užice","name:es":"Užice","name:fr":"Užice","name:lt":"Užicė","name:tr":"Öziçe","name:zh":"烏齊採","int_name":"Uzice","name:zh-Hans":"乌兹采","alt":"Ужице","alt:el":"Ούζιτσε","alt:en":"Uzice","alt:sr":"Ужице","alt:sr-Latn":"Užice"},"display_name":"Град Ужице, Златиборски управни округ, Централна Србија, Србија","address":{"city":"Град Ужице","county":"Златиборски управни округ","ISO3166-2-lvl6":"RS-16","state":"Централна Србија","country":"Србија","country_code":"rs"},"population":78040,"osm_type":"relation","osm_id":2872863,"type":"administrative","location":[19.840273,43.8564957],"bbox":[19.3912194,43.6967094,19.977171,43.9791625]}
{"name":"Град Лозница","other_names":{"name:en":"Loznica City","name:ru":"Лозница","name:sr":"Град Лозница","name:sr-Latn":"Grad Loznica","name:de":"Loznica","alt":"Лозница","alt:en":"Loznica","alt:sr":"Лозница","alt:sr-Latn":"Loznica"},"display_name":"Град Лозница, Мачвански управни округ, Централна Србија, Србија","address":{"city":"Град Лозница","county":"Мачвански управни округ","ISO3166-2-lvl6":"RS-08","state":"Централна Србија","country":"Србија","country_code":"rs"},"population":19863,"osm_type":"relation","osm_id":1762291,"type":"administrative","location":[19.2237478,44.5309221],"bbox":[19.1229762,44.395884,19.5725932,44.7098901]}
{"name":"Град Шабац","other_names":{"name:en":"Sabac City","name:hr":"Grad Šabac","name:ru":"Шабац","name:sr":"Град Шабац","name:sr-Latn":"Grad Šabac","name:ar":"شاباتس","name:de":"Schabatz","name:es":"Šabac","name:et":"Šabac","name:fr":"Šabac","name:hu":"Szabács","name:sl":"Šabac","old_name:de":"Schabatz;Sabatsch","alt":"Шабац","alt:en":"Šabac","alt:hr":"Šabac","alt:sr":"Шабац","alt:sr-Latn":"Šabac"},"display_name":"Град Шабац, Мачвански управни округ, Централна Србија, Србија","address":{"city":"Град Шабац","county":"Мачвански управни округ","ISO3166-2-lvl6":"RS-08","state":"Централна Србија","country":"Србија","country_code":"rs"},"population":53919,"osm_type":"relation","osm_id":1762274,"type":"administrative","location":[19.6953972,44.7571535],"bbox":[19.3005178,44.4759938,19.8518771,44.926718]}
{"name":"Град Нови Пазар","other_names":{"name:en":"City of Novi Pazar","name:sr":"Град Нови Пазар","name:sr-Latn":"Grad Novi Pazar","name:ar":"نوفي بازار","name:be":"Нові-Пазар","name:bg":"Нови пазар","name:bs":"Novi Pazar","name:de":"Novi Pazar","name:el":"Νόβι Πάζαρ","name:es":"Novi Pazar","name:et":"Novi Pazar","name:fa":"نووی پازار","name:fr":"Novi Pazar","name:he":"נובי פאזאר","name:hr":"Novi Pazar","name:ja":"ノヴィ・パザル","name:ko":"노비파자르","name:lt":"Novi Pazaras","name:lv":"Novi Pazara","name:mk":"Нови Пазар","name:mn":"Нови-Пазар","name:ru":"Нови-Пазар","name:sl":"Novi Pazar","name:sq":"Pazari i Ri","name:tr":"Yeni Pazar","name:tt":"Нови-Пазар","name:uk":"Новий Пазар","name:ur":"نووی پازار","name:ckb":"نۆڤی پازار","name:pnb":"نووی پازار","alt_name:hu":"Újvásár","alt_name:ro":"Noul Bazar","alt_name:sq":"Jeni Pazar","name:zh-Hans":"新帕扎尔","name:zh-Hant":"新帕扎爾","alt":"Нови Пазар","alt:en":"Novi Pazar","alt:sr":"Нови Пазар","alt:sr-Latn":"Novi Pazar"},"display_name":"Град Нови Пазар, Рашки управни округ, Централна Србија, Србија","address":{"city":"Град Нови Пазар","county":"Рашки управни округ","ISO3166-2-lvl6":"RS-18","state":"Централна Србија","country":"Србија","country_code":"rs"},"population":100410,"osm_type":"relation","osm_id":2867383,"type":"administrative","location":[20.5112273,43.1363535],"bbox":[20.2266516,42.9611572,20.6932429,43.3117943]}
{"name":"Град Крушевац","other_names":{"name:en":"City of Kruševac","name:sr":"Град Крушевац","name:sr-Latn":"Grad Kruševac","name:ar":"كروشيفاتس","name:el":"Κρούσεβατς","name:es":"Kruševac","name:et":"Kruševac","name:fr":"Kruševac","name:ru":"Крушевац","old_name:de":"Kruschewatz","alt":"Крушевац","alt:en":"Kruševac","alt:sr":"Крушевац","alt:sr-Latn":"Kruševac"},"display_name":"Град Крушевац, Расински управни округ, Централна Србија, Србија","address":{"city":"Град Крушевац","county":"Расински управни округ","ISO3166-2-lvl6":"RS-19","state":"Централна Србија","country":"Србија","country_code":"rs"},"population":128752,"osm_type":"relation","osm_id":2867198,"type":"administrative","location":[21.3264811,43.58264],"bbox":[21.1406693,43.3734302,21.5804886,43.7008384]}
{"name":"Град Лесковац","other_names":{"name:en":"City of Leskovac","name:sr":"Град Лесковац","name:sr-Latn":"Grad Leskovac","name:ar":"ليسكوفاتس","name:de":"Leskovac","name:el":"Λέσκοβατς","name:es":"Leskovac","name:et":"Leskovac","name:fr":"Leskovac","name:lt":"Leskovacas","name:ru":"Лесковац","alt":"Лесковац","alt:en":"Leskovac","alt:sr":"Лесковац","alt:sr-Latn":"Leskovac"},"display_name":"Град Лесковац, Јабланички управни округ, Централна Србија, Србија","address":{"city":"Град Лесковац","county":"Јабланички управни округ","ISO3166-2-lvl6":"RS-23","state":"Централна Србија","country":"Србија","country_code":"rs"},"population":78030,"osm_type":"relation","osm_id":2860164,"type":"administrative","location":[21.9464271,42.9951304],"bbox":[21.7032352,42.6898919,22.2288935,43.170765]}
{"name":"Град Ниш","other_names":{"name:de":"Stadt Nisch","name:en":"City of Niš","name:hr":"Grad Niš","name:sr":"Град Ниш","name:sr-Latn":"Grad Niš","name:ar":"نيش","name:bg":"Ниш","name:da":"Niš","name:el":"Νις","name:es":"Niš","name:et":"Niš","name:fr":"Niš","name:he":"ניש","name:it":"Niš","name:la":"Naissus","name:lt":"Nišas","name:lv":"Niša","name:nl":"Niš","name:pl":"Nisz","name:pt":"Nish","name:ro":"Niș","name:ru":"Ниш","name:sl":"Niš","name:sq":"Nishi","name:tr":"Niş","old_name:de":"Nisch","old_name:it":"Nissa","name:zh-Hans":"尼什","name:zh-Hant":"尼什","alt":"Ниш","alt:de":"Niš","alt:en":"Niš","alt:hr":"Niš","alt:sr":"Ниш","alt:sr-Latn":"Niš"},"display_name":"Град Ниш, Нишавски управни округ, Централна Србија, Србија","address":{"city":"Град Ниш","county":"Нишавски управни округ","ISO3166-2-lvl6":"RS-20","state":"Централна Србија","country":"Србија","country_code":"rs"},"population":260237,"osm_type":"relation","osm_id":2867621,"type":"administrative","location":[21.8959232,43.3211301],"bbox":[21.7087987,43.208945,22.1756915,43.4825933]}
{"name":"Град Врање","other_names":{"name:de":"Vranje","name:en":"City of Vranje","name:sr":"Град Врање","name:sr-Latn":"Grad Vranje","name:bg":"Враня","name:el":"Βράνιε","name:gr":"Βαρανεια","name:hr":"Vranje","name:ru":"Вране","name:tr":"İvranya","old_name:de":"Wragl","alt":"Врање","alt:en":"Vranje","alt:sr":"Врање","alt:sr-Latn":"Vranje"},"display_name":"Град Врање, Пчињски управни округ, Централна Србија, Србија","address":{"city":"Град Врање","county":"Пчињски управни округ","ISO3166-2-lvl6":"RS-24","state":"Централна Србија","country":"Србија","country_code":"rs"},"population":83524,"osm_type":"relation","osm_id":2190516,"type":"administrative","location":[21.8976673,42.5558337],"bbox":[21.7533299,42.40043,22.2383961,42.7965662]}
{"name":"Град Прокупље","other_names":{"name:en":"City of Prokuplje","name:sr":"Град Прокупље","name:sr-Latn":"Grad Prokuplje","name:de":"Prokuplje","name:el":"Προκούπλιε","name:hr":"Prokuplje","name:ru":"Прокупле","name:sl":"Prokuplje","alt":"Прокупље","alt:en":"Prokuplje","alt:sr":"Прокупље","alt:sr-Latn":"Prokuplje"},"display_name":"Град Прокупље, Топлички управни округ, Централна Србија, Србија","address":{"city":"Град Прокупље","county":"Топлички управни округ","ISO3166-2-lvl6":"RS-21","state":"Централна Србија","country":"Србија","country_code":"rs"},"population":44419,"osm_type":"relation","osm_id":2863769,"type":"administrative","location":[21.5884422,43.2343484],"bbox":[21.3162717,42.9989321,21.6803238,43.401733]}
{"name":"Ниш","other_names":{"name:ar":"نيش","name:bg":"Ниш","name:da":"Niš","name:de":"Niš","name:el":"Νις","name:en":"Niš","name:es":"Niš","name:et":"Niš","name:fr":"Niš","name:he":"ניש","name:hr":"Niš","name:la":"Naissus","name:lt":"Nišas","name:lv":"Niša","name:nl":"Niš","name:pl":"Nisz","name:pt":"Nish","name:ro":"Niș","name:ru":"Ниш","name:sl":"Niš","name:sq":"Nishi","name:sr":"Ниш","name:tr":"Niş","old_name:de":"Nisch","name:sr-Latn":"Niš","name:zh-Hans":"尼什","name:zh-Hant":"尼什","name:it":"Niš","old_name:it":"Nissa"},"display_name":"Ниш, Нишавски управни округ, Централна Србија, Србија","address":{"city":"Ниш","county":"Нишавски управни округ","ISO3166-2-lvl6":"RS-20","state":"Централна Србија","country":"Србија","country_code":"rs"},"population":183164,"osm_type":"relation","osm_id":11538321,"type":"city","location":[21.8959232,43.3211301],"bbox":[21.8263408,43.2833971,21.9602276,43.3503345]}
{"name":"Град Ваљево","other_names":{"name:de":"Stadt Valjevo","name:en":"Valjevo City","name:hr":"Grad Valjevo","name:sr":"Град Ваљево","name:sr-Latn":"Grad Valjevo","name:ar":"فاليفو","name:el":"Βάλιεβο","name:es":"Valjevo","name:et":"Valjevo","name:fr":"Valjevo","name:lt":"Valjevas","name:ru":"Валево","name:sl":"Valjevo","name:tr":"Valyeva","name:zh-Hans":"瓦列沃","name:zh-Hant":"瓦列沃","alt":"Ваљево","alt:de":"Valjevo","alt:en":"Valjevo","alt:hr":"Valjevo","alt:sr":"Ваљево","alt:sr-Latn":"Valjevo"},"display_name":"Град Ваљево, Колубарски управни округ, Централна Србија, Србија","address":{"city":"Град Ваљево","county":"Колубарски управни округ","ISO3166-2-lvl6":"RS-09","state":"Централна Србија","country":"Србија","country_code":"rs"},"population":58932,"osm_type":"relation","osm_id":2871513,"type":"administrative","location":[19.8863297,44.2708719],"bbox":[19.5930036,44.0692231,20.0869755,44.4603429]}
{"name":"Град Крагујевац","other_names":{"name:en":"City of Kragujevac","name:pl":"Kragujewiec","name:sr":"Град Крагујевац","name:sr-Latn":"Grad Kragujevac","name:ar":"كراغوييفاتس","name:da":"Kragujevac","name:de":"Kragujevac","name:el":"Κραγκούγιεβατς","name:es":"Kragujevac","name:et":"Kragujevac","name:fr":"Kragujevac","name:he":"קרגוייבץ","name:hr":"Kragujevac","name:lt":"Kragujevacas","name:lv":"Kragujevaca","name:nl":"Kragujevac","name:ru":"Крагуевац","name:sl":"Kragujevac","name:uk":"Крагуєваць","alt":"Крагујевац","alt:en":"Kragujevac","alt:sr":"Крагујевац","alt:sr-Latn":"Kragujevac"},"display_name":"Град Крагујевац, Шумадијски управни округ, Централна Србија, Србија","address":{"city":"Град Крагујевац","county":"Шумадијски управни округ","ISO3166-2-lvl6":"RS-12","state":"Централна Србија","country":"Србија","country_code":"rs"},"population":150835,"osm_type":"relation","osm_id":2870900,"type":"administrative","location":[20.91925,44.0130251],"bbox":[20.5504172,43.8272346,21.1148448,44.1877985]}
{"name":"Београд","other_names":{"name:af":"Belgrado","name:am":"በልግራድ","name:an":"Belgrado","name:ar":"بلغراد","name:az":"Belqrad","name:be":"Бялград","name:bn":"বেলগ্রেড","name:bo":"བེལ་གེ་རེ་ཌི།","name:br":"Beograd","name:bs":"Beograd","name:cs":"Bělehrad","name:cu":"Бѣлъ Градъ","name:cv":"Белград","name:cy":"Beograd","name:da":"Beograd","name:de":"Belgrad","name:el":"Βελιγράδι","name:en":"Belgrade","name:eo":"Beogrado","name:es":"Belgrado","name:et":"Belgrad","name:fa":"بلگراد","name:fi":"Belgrad","name:fo":"Beograd","name:fr":"Belgrade","name:fy":"Belgrado","name:ga":"Béalgrád","name:gd":"Belgrade","name:gl":"Belgrado","name:gv":"Belgraaid","name:he":"בלגרד","name:hi":"बॅलग्रेड","name:hr":"Beograd","name:ht":"Bèlgrad","name:hu":"Belgrád","name:hy":"Բելգրադ","name:id":"Beograd","name:ie":"Beograd","name:io":"Belgrade","name:is":"Belgrad","name:it":"Belgrado","name:ja":"ベオグラード","name:jv":"Beograd","name:ka":"ბელგრადი","name:kk":"Белград","name:ko":"베오그라드","name:ku":"Belgrad","name:kv":"Белград","name:la":"Belgradum","name:lb":"Belgrad","name:li":"Belgrado","name:lt":"Belgradas","name:lv":"Belgrada","name:mk":"Белград","name:ml":"ബെൽഗ്രേഡ്","name:mn":"Белград","name:mr":"बेलग्रेड","name:ms":"Belgrade","name:mt":"Belgrad","name:nl":"Belgrado","name:nn":"Beograd","name:no":"Beograd","name:os":"Белград","name:pl":"Belgrad","name:pt":"Belgrado","name:qu":"Beograd","name:ro":"Belgrad","name:ru":"Белград","name:sc":"Belgrado","name:sh":"Beograd","name:sk":"Belehrad","name:sl":"Beograd","name:sm":"Belgrade","name:so":"Belgaraad","name:sr":"Београд","name:sv":"Belgrad","name:ta":"பெல்கிறேட்","name:tg":"Белград","name:th":"เบลเกรด","name:tl":"Belgrade","name:tr":"Belgrad","name:tt":"Белград","name:ty":"Beograd","name:ug":"بېلگراد","name:uk":"Белград","name:ur":"بلغراد","name:vi":"Beograd","name:vo":"Beograd","name:yi":"בעלגראד","name:yo":"Belgrade","name:zh":"贝尔格莱德/貝爾格勒/貝爾格萊德","name:ace":"Belgrade","name:ast":"Belgráu","name:ckb":"بێلگراد","name:dsb":"Běłogrod","name:ext":"Belgradu","name:frp":"Bèlgrade","name:hif":"Belgrade","name:hsb":"Běłohród","name:jbo":"be'ograd","name:lad":"Belogrado","name:lij":"Belgraddo","name:nan":"Belgrade","name:nov":"Beograd","name:pap":"Belgrado","name:pnb":"بلغراد","name:sah":"Белград","name:scn":"Belgradu","name:sco":"Belgrade","name:udm":"Белград","name:vec":"Belgrado","name:war":"Belgrade","name:wuu":"贝尔格莱德","name:yue":"貝爾格萊德","name:bat-smg":"Belgrads","name:roa-rup":"Biligrad","name:sr-Latn":"Beograd","name:zh-Hans":"贝尔格莱德","name:zh-Hant":"貝爾格勒市/貝爾格萊德","name:bg":"Белград","name:ca":"Belgrad","name:eu":"Belgrad","name:kn":"ಬೆಲ್ಗ್ರಾದ್","name:mi":"Belgrade","name:oc":"Belgrad","name:be-tarask":"Бялград","int_name":"Beograd","name:zh-Hant-HK":"貝爾格萊德","name:zh-Hant-TW":"貝爾格勒","old_name:de":"Griechisch Weißenburg","old_name:el":"Σιγγιδουνον","old_name:hr":"Biograd na Dunavu","old_name:hu":"Nándorfehérvár","old_name:la":"Singidunum","alt:la":"Belogradum","alt:zh":"贝尔格莱德市/貝爾格勒市/貝爾格萊德","alt:zh-Hant-TW":"貝爾格勒市"},"display_name":"Београд, Град Београд, Централна Србија, 11000, Србија","address":{"city":"Београд","county":"Град Београд","ISO3166-2-lvl6":"RS-00","state":"Централна Србија","postcode":"11000","country":"Србија","country_code":"rs"},"population":1166763,"osm_type":"relation","osm_id":2728438,"type":"city","location":[20.4568974,44.8178131],"bbox":[20.2213764,44.6880459,20.6232109,44.9426876]}
{"name":"Град Чачак","other_names":{"name:de":"Stadt Čačak","name:el":"Πόλη Τσάτσακ","name:en":"Cacak City","name:sr":"Град Чачак","name:sr-Latn":"Grad Čačak","name:ar":"تشاتشاك","name:be":"Чачак","name:bg":"Чачак","name:ce":"Чачак","name:es":"Čačak","name:et":"Čačak","name:fa":"چاچاک","name:fr":"Čačak","name:he":"צ'אצ'אק","name:ja":"チャチャク","name:ko":"차차크","name:lt":"Čačakas","name:lv":"Čačaka","name:mk":"Чачак","name:mn":"Чачак","name:os":"Чачак","name:ps":"چاچاک","name:ru":"Чачак","name:sk":"Čačak","name:sl":"Čačak","name:sq":"Çaçaku","name:th":"ชาชัก","name:tr":"Caçka","name:tt":"Чачак","name:uk":"Чачак","name:ur":"چاچاک","name:zh":"查查克","name:ckb":"چاچاک","name:pnb":"چاچاک","old_name":"Градац","alt_name:hu":"Csacsak","old_name:de":"Zazach","old_name:sr":"Градац","old_name:sr-Latn":"Gradac","alt":"Чачак","alt:de":"Čačak","alt:el":"Τσάτσακ","alt:en":"Čačak","alt:sr":"Чачак","alt:sr-Latn":"Čačak"},"display_name":"Град Чачак, Моравички управни округ, Централна Србија, Србија","address":{"city":"Град Чачак","county":"Моравички управни округ","ISO3166-2-lvl6":"RS-17","state":"Централна Србија","country":"Србија","country_code":"rs"},"population":73217,"osm_type":"relation","osm_id":2870953,"type":"administrative","location":[20.3491624,43.8914332],"bbox":[20.1071372,43.7296028,20.6353851,44.0071435]}
{"name":"Град Панчево","other_names":{"name:en":"Pancevo City","name:hu":"Pancsova város","name:sr":"Град Панчево","name:sr-Latn":"Grad Pančevo","name:ar":"بانتشيفو","name:cs":"Pančevo","name:da":"Pančevo","name:de":"Pantschowa","name:es":"Pančevo","name:et":"Pančevo","name:fr":"Pančevo","name:lt":"Pančevas","name:ro":"Panciova","name:ru":"Панчево","alt_name:en":"Panchevo","alt":"Панчево","alt:en":"Pančevo","alt:hu":"Pancsova","alt:sr":"Панчево","alt:sr-Latn":"Pančevo"},"display_name":"Град Панчево, Јужнобанатски управни округ, Војводина, Србија","address":{"city":"Град Панчево","county":"Јужнобанатски управни округ","ISO3166-2-lvl6":"RS-04","state":"Војводина","ISO3166-2-lvl4":"RS-VO","country":"Србија","country_code":"rs"},"population":76203,"osm_type":"relation","osm_id":1639504,"type":"administrative","location":[20.6399643,44.8705686],"bbox":[20.4997159,44.6580835,20.9519742,45.0537085]}
{"name":"Град Јагодина","other_names":{"name:en":"Jagodina City","name:sr":"Град Јагодина","name:sr-Latn":"Grad Jagodina","name:ar":"ياغودينا","name:de":"Jagodina","name:es":"Jagodina","name:et":"Jagodina","name:fr":"Jagodina","name:hr":"Jagodina","name:ru":"Ягодина","name:sl":"Jagodina","alt":"Јагодина","alt:en":"Jagodina","alt:sr":"Јагодина","alt:sr-Latn":"Jagodina"},"display_name":"Град Јагодина, Поморавски управни округ, Централна Србија, Србија","address":{"city":"Град Јагодина","county":"Поморавски управни округ","ISO3166-2-lvl6":"RS-13","state":"Централна Србија","country":"Србија","country_code":"rs"},"population":35589,"osm_type":"relation","osm_id":2869333,"type":"administrative","location":[21.2607688,43.9794256],"bbox":[21.0476316,43.8406502,21.3712184,44.1256268]}
{"name":"Град Краљево","other_names":{"name:el":"Πόλη του Κράλιεβο","name:en":"Kraljevo City","name:sr":"Град Краљево","name:sr-Latn":"Grad Kraljevo","name:ar":"كرالييفو","name:de":"Kraljevo","name:es":"Kraljevo","name:et":"Kraljevo","name:fr":"Kraljevo","name:hr":"Kraljevo","name:lt":"Kraljevas","name:ru":"Кралево","name:sl":"Kraljevo","alt":"Краљево","alt:el":"Κράλιεβο","alt:en":"Kraljevo","alt:sr":"Краљево","alt:sr-Latn":"Kraljevo"},"display_name":"Град Краљево, Рашки управни округ, Централна Србија, Србија","address":{"city":"Град Краљево","county":"Рашки управни округ","ISO3166-2-lvl6":"RS-18","state":"Централна Србија","country":"Србија","country_code":"rs"},"population":64175,"osm_type":"relation","osm_id":2867382,"type":"administrative","location":[20.6870792,43.7234519],"bbox":[20.3239113,43.3882154,20.9620326,43.8813552]}
{"name":"Град Смедерево","other_names":{"name:en":"Smederevo City","name:sr":"Град Смедерево","name:sr-Latn":"Grad Smederevo","name:ar":"سميديريفو","name:de":"Semendria","name:es":"Smederevo","name:et":"Smederevo","name:fr":"Smederevo","name:hr":"Smederevo","name:hu":"Szendrő","name:la":"Semendria","name:ru":"Смедерево","name:tr":"Semendire","alt":"Смедерево","alt:en":"Smederevo","alt:sr":"Смедерево","alt:sr-Latn":"Smederevo"},"display_name":"Град Смедерево, Подунавски управни округ, Централна Србија, Србија","address":{"city":"Град Смедерево","county":"Подунавски управни округ","ISO3166-2-lvl6":"RS-10","state":"Централна Србија","country":"Србија","country_code":"rs"},"population":108209,"osm_type":"relation","osm_id":2869908,"type":"administrative","location":[20.9271115,44.6651048],"bbox":[20.743395,44.4645115,21.1517986,44.7218028]}
{"name":"Град Пожаревац","other_names":{"name:en":"Pozarevac City","name:sr":"Град Пожаревац","name:sr-Latn":"Grad Požarevac","name:he":"פוז'ארוואץ","name:hu":"Pozsarevác","name:lt":"Požarevacas","name:pl":"Pożarewac","name:ru":"Пожаревац","name:zh":"波扎雷瓦茨","old_name:de":"Passarowitz","alt":"Пожаревац","alt:en":"Požarevac","alt:sr":"Пожаревац","alt:sr-Latn":"Požarevac"},"display_name":"Град Пожаревац, Браничевски управни округ, Централна Србија, Србија","address":{"city":"Град Пожаревац","county":"Браничевски управни округ","ISO3166-2-lvl6":"RS-11","state":"Централна Србија","country":"Србија","country_code":"rs"},"population":75334,"osm_type":"relation","osm_id":2870055,"type":"administrative","location":[21.1854,44.6199926],"bbox":[21.0220076,44.4979254,21.3916461,44.8045498]}
{"name":"Град Бор","other_names":{"name:en":"City of Bor","name:sr":"Град Бор","name:sr-Latn":"Grad Bor","name:de":"Bor","name:ro":"Bor","name:ru":"Бор","alt":"Бор","alt:en":"Bor","alt:sr":"Бор","alt:sr-Latn":"Bor"},"display_name":"Град Бор, Борски управни округ, Централна Србија, Србија","address":{"city":"Град Бор","county":"Борски управни округ","ISO3166-2-lvl6":"RS-14","state":"Централна Србија","country":"Србија","country_code":"rs"},"population":48615,"osm_type":"relation","osm_id":1708278,"type":"administrative","location":[22.0991779,44.0778456],"bbox":[21.7796748,43.8960832,22.2482954,44.2902295]}
{"name":"Град Зајечар","other_names":{"name:en":"Zajecar City","name:ru":"Заечар","name:sr":"Град Зајечар","name:sr-Latn":"Grad Zaječar","name:bg":"Зайчар","name:de":"Zaječar","name:ro":"Zăiceari","old_name:de":"Zatitscher","alt":"Зајечар","alt:en":"Zaječar","alt:sr":"Зајечар","alt:sr-Latn":"Zaječar"},"display_name":"Град Зајечар, Зајечарски управни округ, Централна Србија, Србија","address":{"city":"Град Зајечар","county":"Зајечарски управни округ","ISO3166-2-lvl6":"RS-15","state":"Централна Србија","country":"Србија","country_code":"rs"},"population":43860,"osm_type":"relation","osm_id":2869099,"type":"administrative","location":[22.2785536,43.9030925],"bbox":[22.0532111,43.6862769,22.5434905,44.1881754]}
{"name":"Град Пирот","other_names":{"name:en":"City of Pirot","name:ru":"Город Пирот","name:sr":"Град Пирот","name:sr-Latn":"Grad Pirot","name:de":"Pirot","name:la":"Turres","name:nl":"Pirot","alt":"Пирот","alt:en":"Pirot","alt:ru":"Пирот","alt:sr":"Пирот","alt:sr-Latn":"Pirot"},"display_name":"Град Пирот, Пиротски управни округ, Централна Србија, 18300, Србија","address":{"city":"Град Пирот","county":"Пиротски управни округ","ISO3166-2-lvl6":"RS-22","state":"Централна Србија","postcode":"18300","country":"Србија","country_code":"rs"},"population":38785,"osm_type":"relation","osm_id":2860575,"type":"administrative","location":[22.5865039,43.1547342],"bbox":[22.3856637,42.9732955,22.9097885,43.4027785]}
{"name":"Град Суботица","other_names":{"name:en":"City of Subotica","name:hr":"Grad Subotica","name:hu":"Szabadka városa","name:ru":"Город Суботица","name:sr":"Град Суботица","name:sr-Latn":"Grad Subotica","name:ar":"سوبتيتسا","name:da":"Subotica","name:de":"Subotica","name:el":"Σουμπότιτσα","name:es":"Subotica","name:et":"Subotica","name:fr":"Subotica","name:lt":"Subotica","name:sl":"Subotica","name:uk":"Суботиця","old_name:de":"Maria-Theresiopel","alt":"Суботица","alt:en":"Subotica","alt:hr":"Subotica","alt:hu":"Szabadka","alt:ru":"Суботица","alt:sr":"Суботица","alt:sr-Latn":"Subotica"},"display_name":"Град Суботица, Севернобачки управни округ, Војводина, Србија","address":{"city":"Град Суботица","county":"Севернобачки управни округ","ISO3166-2-lvl6":"RS-01","state":"Војводина","ISO3166-2-lvl4":"RS-VO","country":"Србија","country_code":"rs"},"population":141554,"osm_type":"relation","osm_id":1279957,"type":"administrative","location":[19.6653273,46.1002058],"bbox":[19.2816008,45.8490799,19.8959655,46.1902839]}
{"name":"Град Сомбор","other_names":{"name:en":"City of Sombor","name:hr":"Grad Sombor","name:hu":"Zombor város","name:ru":"Сомбор","name:sr":"Град Сомбор","name:sr-Latn":"Grad Sombor","name:ar":"سومبور","name:be":"Сомбар","name:bg":"Сомбор","name:ce":"Сомбор","name:el":"Σόμπορ","name:fa":"سومبور","name:he":"סומבור","name:hy":"Սոմբոր","name:ja":"ソンボル","name:ko":"솜보르","name:la":"Somborinum","name:lv":"Sombora","name:mk":"Сомбор","name:tt":"Сомбор","name:uk":"Сомбор","name:ur":"سومبور","name:ckb":"سۆمبۆر","name:pnb":"سومبور","name:rue":"Зомбор","old_name:hu":"Czoborszentmihály","old_name:tr":"Sonbor","name:zh-Hans":"松博尔","name:zh-Hant":"松博爾","alt":"Сомбор","alt:en":"Sombor","alt:hr":"Sombor","alt:hu":"Zombor","alt:sr":"Сомбор","alt:sr-Latn":"Sombor"},"display_name":"Град Сомбор, Западнобачки управни округ, Војводина, Србија","address":{"city":"Град Сомбор","county":"Западнобачки управни округ","ISO3166-2-lvl6":"RS-05","state":"Војводина","ISO3166-2-lvl4":"RS-VO","country":"Србија","country_code":"rs"},"population":51471,"osm_type":"relation","osm_id":1279958,"type":"administrative","location":[19.1147036,45.7727397],"bbox":[18.8149945,45.5675349,19.4219666,46.0400025]}
{"name":"Град Сремска Митровица","other_names":{"name:en":"Sremska Mitrovica City","name:hr":"Grad Srijemska Mitrovica","name:hu":"Szávaszentdemeter város","name:sr":"Град Сремска Митровица","name:sr-Latn":"Grad Sremska Mitrovica","name:el":"Σρέμσκα Μιτρόβιτσα","name:la":"Sirmium","name:lt":"Sremska Mitrovica","name:pl":"Sremska Mitrovica","name:ru":"Сремска-Митровица","old_name:de":"Syrmisch-Mitrowitz","alt":"Сремска Митровица","alt:en":"Sremska Mitrovica","alt:hr":"Srijemska Mitrovica","alt:hu":"Szávaszentdemeter","alt:sr":"Сремска Митровица","alt:sr-Latn":"Sremska Mitrovica"},"display_name":"Град Сремска Митровица, Сремски управни округ, Војводина, Србија","address":{"city":"Град Сремска Митровица","county":"Сремски управни округ","ISO3166-2-lvl6":"RS-07","state":"Војводина","ISO3166-2-lvl4":"RS-VO","country":"Србија","country_code":"rs"},"population":37751,"osm_type":"relation","osm_id":1639313,"type":"administrative","location":[19.6124132,44.9701654],"bbox":[19.1938039,44.888901,19.8240738,45.1729682]}
{"name":"Град Нови Сад","other_names":{"name:de":"Stadt Neusatz","name:en":"Novi Sad City","name:hu":"Újvidék város","name:pl":"Nowy Sad","name:sr":"Град Нови Сад","name:sr-Latn":"Grad Novi Sad","name:af":"Novi Sad","name:ar":"نوفي ساد","name:ba":"Нови-Сад","name:be":"Нові-Сад","name:bg":"Нови Сад","name:br":"Novi Sad","name:bs":"Novi Sad","name:ca":"Novi Sad","name:ce":"Нови-Сад","name:cs":"Nový Sad","name:cu":"Новъ Садъ","name:da":"Novi Sad","name:el":"Νόβι Σαντ","name:eo":"Novi Sad","name:es":"Novi Sad","name:et":"Novi Sad","name:eu":"Novi Sad","name:fa":"نووی ساد","name:fi":"Novi Sad","name:fr":"Novi Sad","name:ga":"Novi Sad","name:gl":"Novi Sad","name:he":"נובי סאד","name:hr":"Novi Sad","name:hy":"Նովի Սադ","name:id":"Novi Sad","name:ie":"Novi Sad","name:io":"Novi Sad","name:it":"Novi Sad","name:ja":"ノヴィ・サド","name:jv":"Novi Sad","name:ka":"ნოვი-სადი","name:ko":"노비사드","name:ku":"Novî Sad","name:la":"Neoplanta","name:lt":"Novi Sadas","name:lv":"Novisada","name:mr":"नोव्ही साद","name:ms":"Novi Sad","name:na":"Novi Sad","name:nb":"Novi Sad","name:nl":"Novi Sad","name:nn":"Novi Sad","name:oc":"Novi Sad","name:os":"Нови-Сад","name:ps":"نووي ساد","name:pt":"Novi Sad","name:ro":"Novi Sad","name:ru":"Нови-Сад","name:sc":"Novi Sad","name:sk":"Nový Sad","name:sl":"Novi Sad","name:sq":"Novi Sad","name:st":"Novi Sad","name:sv":"Novi Sad","name:sw":"Novi Sad","name:th":"นอวีซาด","name:tr":"Novi Sad","name:tt":"Нови-Сад","name:uk":"Новий Сад","name:ur":"نووی ساد","name:vi":"Novi Sad","name:vo":"Novi Sad","name:zh":"诺维萨德","name:ast":"Novi Sad","old_name":"Neoplanta","old_name:de":"Neusatz","name:zh-Hans":"诺维萨德","name:zh-Hant":"諾維薩德","alt":"Нови Сад","alt:de":"Novi Sad","alt:en":"Novi Sad","alt:hu":"Újvidék","alt:sr":"Нови Сад","alt:sr-Latn":"Novi Sad"},"display_name":"Град Нови Сад, Јужнобачки управни округ, Војводина, Србија","address":{"city":"Град Нови Сад","county":"Јужнобачки управни округ","ISO3166-2-lvl6":"RS-06","state":"Војводина","ISO3166-2-lvl4":"RS-VO","country":"Србија","country_code":"rs"},"population":297815,"osm_type":"relation","osm_id":1649672,"type":"administrative","location":[19.8451756,45.2551338],"bbox":[19.5563618,45.149733,20.1044599,45.4314629]}
{"name":"Град Зрењанин","other_names":{"name:en":"Zrenjanin City","name:hr":"Grad Zrenjanin","name:hu":"Nagybecskerek város","name:ro":"Municipiul Zrenianin","name:sk":"Mesto Zrenanin","name:sr":"Град Зрењанин","name:sr-Latn":"Grad Zrenjanin","name:ar":"زرنجانین","name:be":"Зрэнянін","name:bg":"Зренянин","name:bs":"Zrenjanin","name:ca":"Zrenjanin","name:cs":"Zrenjanin","name:da":"Zrenjanin","name:de":"Großbetschkerek","name:el":"Ζρένιανιν","name:eo":"Zrenjanin","name:es":"Zrenjanin","name:et":"Zrenjanin","name:fa":"زرنجانین","name:fr":"Zrenjanin","name:he":"זרניאנין","name:id":"Zrenjanin","name:ie":"Zrenjanin","name:it":"Zrenjanin","name:ja":"ズレニャニン","name:jv":"Zrenjanin","name:ka":"ზრენიანინი","name:ko":"즈레냐닌","name:lt":"Zrenianinas","name:lv":"Zreņanina","name:mn":"Зренянин","name:ms":"Zrenjanin","name:nb":"Zrenjanin","name:nl":"Zrenjanin","name:nn":"Zrenjanin","name:os":"Зренянин","name:pl":"Zrenjanin","name:pt":"Zrenjanin","name:ru":"Зренянин","name:sl":"Zrenjanin","name:sq":"Zrenjanin","name:sv":"Zrenjanin","name:tr":"Zrenjanin","name:tt":"Зренянин","name:uk":"Зренянин","name:ur":"زرینیانین","name:vi":"Zrenjanin","name:zh":"兹雷尼亚宁","name:rue":"Зрењанин","old_name":"Велики Бечкерек;Петровград","alt_name:ro":"Becicherecu Mare","old_name:sr":"Велики Бечкерек;Петровград","old_name:sr-Latn":"Veliki Bečkerek;Petrovgrad","alt":"Зрењанин","alt:en":"Zrenjanin","alt:hr":"Zrenjanin","alt:hu":"Nagybecskerek","alt:ro":"Zrenianin","alt:sk":"Zreňanin","alt:sr":"Зрењанин","alt:sr-Latn":"Zrenjanin"},"display_name":"Град Зрењанин, Средњобанатски управни округ, Војводина, Србија","address":{"city":"Град Зрењанин","county":"Средњобанатски управни округ","ISO3166-2-lvl6":"RS-02","state":"Војводина","ISO3166-2-lvl4":"RS-VO","country":"Србија","country_code":"rs"},"population":79773,"osm_type":"relation","osm_id":1639826,"type":"administrative","location":[20.3907614,45.3802683],"bbox":[20.1472803,45.0744076,20.7191732,45.6191671]}
{"name":"Град Кикинда","other_names":{"name:en":"Kikinda City","name:hu":"Nagykikinda város","name:sr":"Град Кикинда","name:sr-Latn":"Grad Kikinda","name:be":"Кікінда","name:bg":"Кикинда","name:ce":"Кикинда","name:el":"Κίκιντα","name:fa":"کیکیندا","name:he":"קיקינדה","name:ja":"キキンダ","name:ko":"키킨다","name:lt":"Kikinda","name:mk":"Кикинда","name:nl":"Kikinda","name:ro":"Chichinda Mare","name:ru":"Кикинда","name:sk":"Kikinda","name:tt":"Кикинда","name:uk":"Кикинда","name:ur":"کیکیندا","name:ckb":"کیکیندا","name:pnb":"کیکندا","alt_name:de":"Großkikinda","old_name:ru":"Велика-Кикинда;Гросс-Кикинда;Надь-Кикинда","old_name:sr":"Велика Кикинда","old_name:uk":"Велика-Кикинда;Гросс-Кикинда;Надь-Кикинда","name:zh-Hans":"基金达","name:zh-Hant":"基金達","old_name:sr-Latn":"Velika Kikinda","alt":"Кикинда","alt:en":"Kikinda","alt:hu":"Nagykikinda","alt:sr":"Кикинда","alt:sr-Latn":"Kikinda"},"display_name":"Град Кикинда, Севернобанатски управни округ, Војводина, Србија","address":{"city":"Град Кикинда","county":"Севернобанатски управни округ","ISO3166-2-lvl6":"RS-03","state":"Војводина","ISO3166-2-lvl4":"RS-VO","country":"Србија","country_code":"rs"},"population":38065,"osm_type":"relation","osm_id":1639618,"type":"administrative","location":[20.4653054,45.8300065],"bbox":[20.1657213,45.6013105,20.6628372,45.981371]}
{"name":"Град Вршац","other_names":{"name:en":"City of Vršac","name:sr":"Град Вршац","name:sr-Latn":"Grad Vršac","name:cs":"Vršac","name:he":"ורשאץ","name:hu":"Versec","name:ro":"Vârșeț","name:ru":"Вршац","old_name:de":"Werschetz","alt":"Вршац","alt:en":"Vršac","alt:sr":"Вршац","alt:sr-Latn":"Vršac"},"display_name":"Град Вршац, Јужнобанатски управни округ, Војводина, Србија","address":{"city":"Град Вршац","county":"Јужнобанатски управни округ","ISO3166-2-lvl6":"RS-04","state":"Војводина","ISO3166-2-lvl4":"RS-VO","country":"Србија","country_code":"rs"},"population":52026,"osm_type":"relation","osm_id":1639503,"type":"administrative","location":[21.2960485,45.1211263],"bbox":[21.0548492,44.885023,21.5288256,45.2529375]}
{"name":"Лозница","other_names":{"name:de":"Loznica","name:en":"Loznica","name:ru":"Лозница","name:sr":"Лозница","name:sr-Latn":"Loznica"},"display_name":"Град Лозница, Мачвански управни округ, Централна Србија, 15300, Србија","address":{"city":"Град Лозница","county":"Мачвански управни округ","ISO3166-2-lvl6":"RS-08","state":"Централна Србија","postcode":"15300","country":"Србија","country_code":"rs"},"population":19863,"osm_type":"node","osm_id":254036981,"type":"city","location":[19.2237478,44.5309221],"bbox":[19.0637478,44.3709221,19.3837478,44.6909221]}
{"name":"Сремска Митровица","other_names":{"name:el":"Σρέμσκα Μιτρόβιτσα","name:en":"Sremska Mitrovica","name:hr":"Srijemska Mitrovica","name:hu":"Szávaszentdemeter","name:la":"Sirmium","name:lt":"Sremska Mitrovica","name:pl":"Sremska Mitrovica","name:ru":"Сремска-Митровица","name:sr":"Сремска Митровица","old_name:de":"Syrmisch-Mitrowitz","name:sr-Latn":"Sremska Mitrovica"},"display_name":"Град Сремска Митровица, Сремски управни округ, Војводина, Србија","address":{"city":"Град Сремска Митровица","county":"Сремски управни округ","ISO3166-2-lvl6":"RS-07","state":"Војводина","ISO3166-2-lvl4":"RS-VO","country":"Србија","country_code":"rs"},"population":37751,"osm_type":"node","osm_id":254036974,"type":"city","location":[19.6124132,44.9701654],"bbox":[19.4524132,44.8101654,19.7724132,45.1301654]}
{"name":"Нови Пазар","other_names":{"name:ar":"نوفي بازار","name:be":"Нові-Пазар","name:bg":"Нови пазар","name:bs":"Novi Pazar","name:de":"Novi Pazar","name:el":"Νόβι Πάζαρ","name:en":"Novi Pazar","name:es":"Novi Pazar","name:et":"Novi Pazar","name:fa":"نووی پازار","name:fr":"Novi Pazar","name:he":"נובי פאזאר","name:hr":"Novi Pazar","name:ja":"ノヴィ・パザル","name:ko":"노비파자르","name:lt":"Novi Pazaras","name:lv":"Novi Pazara","name:mk":"Нови Пазар","name:mn":"Нови-Пазар","name:ru":"Нови-Пазар","name:sl":"Novi Pazar","name:sq":"Pazari i Ri","name:sr":"Нови Пазар","name:tr":"Yeni Pazar","name:tt":"Нови-Пазар","name:uk":"Новий Пазар","name:ur":"نووی پازار","name:ckb":"نۆڤی پازار","name:pnb":"نووی پازار","alt_name:hu":"Újvásár","alt_name:ro":"Noul Bazar","alt_name:sq":"Jeni Pazar","name:sr-Latn":"Novi Pazar","name:zh-Hans":"新帕扎尔","name:zh-Hant":"新帕扎爾"},"display_name":"Град Нови Пазар, Рашки управни округ, Централна Србија, Србија","address":{"city":"Град Нови Пазар","county":"Рашки управни округ","ISO3166-2-lvl6":"RS-18","state":"Централна Србија","country":"Србија","country_code":"rs"},"population":66527,"osm_type":"node","osm_id":338659082,"type":"city","location":[20.5112273,43.1363535],"bbox":[20.3512273,42.9763535,20.6712273,43.2963535]}
{"name":"Врање","other_names":{"name:bg":"Враня","name:de":"Vranje","name:el":"Βράνιε","name:en":"Vranje","name:gr":"Βαρανεια","name:hr":"Vranje","name:ru":"Вране","name:sr":"Врање","name:tr":"İvranya","old_name:de":"Wragl","name:sr-Latn":"Vranje"},"display_name":"Град Врање, Пчињски управни округ, Централна Србија, 17501, Србија","address":{"city":"Град Врање","county":"Пчињски управни округ","ISO3166-2-lvl6":"RS-24","state":"Централна Србија","postcode":"17501","country":"Србија","country_code":"rs"},"population":55138,"osm_type":"node","osm_id":185549608,"type":"city","location":[21.8976673,42.5558337],"bbox":[21.7376673,42.3958337,22.0576673,42.7158337]}
{"name":"Прокупље","other_names":{"name:de":"Prokuplje","name:el":"Προκούπλιε","name:en":"Prokuplje","name:hr":"Prokuplje","name:ru":"Прокупле","name:sl":"Prokuplje","name:sr":"Прокупље","name:sr-Latn":"Prokuplje"},"display_name":"Град Прокупље, Топлички управни округ, Централна Србија, Србија","address":{"city":"Град Прокупље","county":"Топлички управни округ","ISO3166-2-lvl6":"RS-21","state":"Централна Србија","country":"Србија","country_code":"rs"},"population":27333,"osm_type":"node","osm_id":449625244,"type":"city","location":[21.5884422,43.2343484],"bbox":[21.4284422,43.0743484,21.7484422,43.3943484]}
{"name":"Крушевац","other_names":{"name:ar":"كروشيفاتس","name:el":"Κρούσεβατς","name:en":"Kruševac","name:es":"Kruševac","name:et":"Kruševac","name:fr":"Kruševac","name:ru":"Крушевац","name:sr":"Крушевац","old_name:de":"Kruschewatz","name:sr-Latn":"Kruševac"},"display_name":"Град Крушевац, Расински управни округ, Централна Србија, Србија","address":{"city":"Град Крушевац","county":"Расински управни округ","ISO3166-2-lvl6":"RS-19","state":"Централна Србија","country":"Србија","country_code":"rs"},"population":58745,"osm_type":"node","osm_id":3720265371,"type":"city","location":[21.3264811,43.58264],"bbox":[21.1664811,43.42264,21.4864811,43.74264]}
{"name":"Лесковац","other_names":{"name:ar":"ليسكوفاتس","name:de":"Leskovac","name:el":"Λέσκοβατς","name:en":"Leskovac","name:es":"Leskovac","name:et":"Leskovac","name:fr":"Leskovac","name:lt":"Leskovacas","name:ru":"Лесковац","name:sr":"Лесковац","name:sr-Latn":"Leskovac"},"display_name":"Град Лесковац, Јабланички управни округ, Централна Србија, 16000, Србија","address":{"city":"Град Лесковац","county":"Јабланички управни округ","ISO3166-2-lvl6":"RS-23","state":"Централна Србија","postcode":"16000","country":"Србија","country_code":"rs"},"population":78030,"osm_type":"node","osm_id":185538499,"type":"city","location":[21.9464271,42.9951304],"bbox":[21.7864271,42.8351304,22.1064271,43.1551304]}
{"name":"Ниш","other_names":{"name:ar":"نيش","name:bg":"Ниш","name:da":"Niš","name:de":"Niš","name:el":"Νις","name:en":"Niš","name:es":"Niš","name:et":"Niš","name:fr":"Niš","name:he":"ניש","name:hr":"Niš","name:it":"Niš","name:la":"Naissus","name:lt":"Nišas","name:lv":"Niša","name:nl":"Niš","name:pl":"Nisz","name:pt":"Nish","name:ro":"Niș","name:ru":"Ниш","name:sl":"Niš","name:sq":"Nishi","name:sr":"Ниш","name:tr":"Niş","old_name:de":"Nisch","old_name:it":"Nissa","name:sr-Latn":"Niš","name:zh-Hans":"尼什","name:zh-Hant":"尼什"},"display_name":"Ниш, Нишавски управни округ, Централна Србија, Србија","address":{"city":"Ниш","county":"Нишавски управни округ","ISO3166-2-lvl6":"RS-20","state":"Централна Србија","country":"Србија","country_code":"rs"},"population":183164,"osm_type":"node","osm_id":100890898,"type":"city","location":[21.8959232,43.3211301],"bbox":[21.7359232,43.1611301,22.0559232,43.4811301]}
{"name":"Ужице","other_names":{"name:am":"ኡዚዝ","name:ar":"أوزيتسه","name:be":"Ужыцкае","name:bn":"উজিস","name:de":"Užice","name:el":"Ούζιτσε","name:en":"Uzice","name:es":"Užice","name:fr":"Užice","name:lt":"Užicė","name:ru":"Ужице","name:sk":"Užice","name:sr":"Ужице","name:tr":"Öziçe","name:zh":"烏齊採","int_name":"Uzice","name:sr-Latn":"Užice","name:zh-Hans":"乌兹采"},"display_name":"Град Ужице, Златиборски управни округ, Централна Србија, 31000, Србија","address":{"city":"Град Ужице","county":"Златиборски управни округ","ISO3166-2-lvl6":"RS-16","state":"Централна Србија","postcode":"31000","country":"Србија","country_code":"rs"},"population":52646,"osm_type":"node","osm_id":848084912,"type":"city","location":[19.840273,43.8564957],"bbox":[19.680273,43.6964957,20.000273,44.0164957]}
{"name":"Чачак","other_names":{"name:ar":"تشاتشاك","name:be":"Чачак","name:bg":"Чачак","name:ce":"Чачак","name:de":"Čačak","name:el":"Τσάτσακ","name:en":"Čačak","name:es":"Čačak","name:et":"Čačak","name:fa":"چاچاک","name:fr":"Čačak","name:he":"צ'אצ'אק","name:ja":"チャチャク","name:ko":"차차크","name:lt":"Čačakas","name:lv":"Čačaka","name:mk":"Чачак","name:mn":"Чачак","name:os":"Чачак","name:ps":"چاچاک","name:ru":"Чачак","name:sk":"Čačak","name:sl":"Čačak","name:sq":"Çaçaku","name:sr":"Чачак","name:th":"ชาชัก","name:tr":"Caçka","name:tt":"Чачак","name:uk":"Чачак","name:ur":"چاچاک","name:zh":"查查克","name:ckb":"چاچاک","name:pnb":"چاچاک","old_name":"Градац","alt_name:hu":"Csacsak","old_name:de":"Zazach","old_name:sr":"Градац","name:sr-Latn":"Čačak","old_name:sr-Latn":"Gradac"},"display_name":"Град Чачак, Моравички управни округ, Централна Србија, 32000, Србија","address":{"city":"Град Чачак","county":"Моравички управни округ","ISO3166-2-lvl6":"RS-17","state":"Централна Србија","postcode":"32000","country":"Србија","country_code":"rs"},"population":73217,"osm_type":"node","osm_id":254037025,"type":"city","location":[20.3491624,43.8914332],"bbox":[20.1891624,43.7314332,20.5091624,44.0514332]}
{"name":"Ваљево","other_names":{"name:ar":"فاليفو","name:de":"Valjevo","name:el":"Βάλιεβο","name:en":"Valjevo","name:es":"Valjevo","name:et":"Valjevo","name:fr":"Valjevo","name:hr":"Valjevo","name:lt":"Valjevas","name:ru":"Валево","name:sl":"Valjevo","name:sr":"Ваљево","name:tr":"Valyeva","name:sr-Latn":"Valjevo","name:zh-Hans":"瓦列沃","name:zh-Hant":"瓦列沃"},"display_name":"Град Ваљево, Колубарски управни округ, Централна Србија, 14000, Србија","address":{"city":"Град Ваљево","county":"Колубарски управни округ","ISO3166-2-lvl6":"RS-09","state":"Централна Србија","postcode":"14000","country":"Србија","country_code":"rs"},"population":58932,"osm_type":"node","osm_id":307649772,"type":"city","location":[19.8863297,44.2708719],"bbox":[19.7263297,44.1108719,20.0463297,44.4308719]}
{"name":"Краљево","other_names":{"name:ar":"كرالييفو","name:de":"Kraljevo","name:el":"Κράλιεβο","name:en":"Kraljevo","name:es":"Kraljevo","name:et":"Kraljevo","name:fr":"Kraljevo","name:hr":"Kraljevo","name:lt":"Kraljevas","name:ru":"Кралево","name:sl":"Kraljevo","name:sr":"Краљево","name:sr-Latn":"Kraljevo"},"display_name":"Град Краљево, Рашки управни округ, Централна Србија, Србија","address":{"city":"Град Краљево","county":"Рашки управни округ","ISO3166-2-lvl6":"RS-18","state":"Централна Србија","country":"Србија","country_code":"rs"},"population":64175,"osm_type":"node","osm_id":353439335,"type":"city","location":[20.6870792,43.7234519],"bbox":[20.5270792,43.5634519,20.8470792,43.8834519]}
{"name":"Крагујевац","other_names":{"name:ar":"كراغوييفاتس","name:da":"Kragujevac","name:de":"Kragujevac","name:el":"Κραγκούγιεβατς","name:en":"Kragujevac","name:es":"Kragujevac","name:et":"Kragujevac","name:fr":"Kragujevac","name:he":"קרגוייבץ","name:hr":"Kragujevac","name:lt":"Kragujevacas","name:lv":"Kragujevaca","name:nl":"Kragujevac","name:ru":"Крагуевац","name:sl":"Kragujevac","name:sr":"Крагујевац","name:uk":"Крагуєваць","name:sr-Latn":"Kragujevac"},"display_name":"Град Крагујевац, Шумадијски управни округ, Централна Србија, Србија","address":{"city":"Град Крагујевац","county":"Шумадијски управни округ","ISO3166-2-lvl6":"RS-12","state":"Централна Србија","country":"Србија","country_code":"rs"},"population":150835,"osm_type":"node","osm_id":313853846,"type":"city","location":[20.91925,44.0130251],"bbox":[20.75925,43.8530251,21.07925,44.1730251]}
{"name":"Шабац","other_names":{"name:ar":"شاباتس","name:de":"Schabatz","name:en":"Šabac","name:es":"Šabac","name:et":"Šabac","name:fr":"Šabac","name:hr":"Šabac","name:hu":"Szabács","name:ru":"Шабац","name:sl":"Šabac","name:sr":"Шабац","old_name:de":"Schabatz;Sabatsch","name:sr-Latn":"Šabac"},"display_name":"Град Шабац, Мачвански управни округ, Централна Србија, Србија","address":{"city":"Град Шабац","county":"Мачвански управни округ","ISO3166-2-lvl6":"RS-08","state":"Централна Србија","country":"Србија","country_code":"rs"},"population":53919,"osm_type":"node","osm_id":254036931,"type":"city","location":[19.6953972,44.7571535],"bbox":[19.5353972,44.5971535,19.8553972,44.9171535]}
{"name":"Београд","other_names":{"name:af":"Belgrado","name:am":"በልግራድ","name:an":"Belgrado","name:ar":"بلغراد","name:az":"Belqrad","name:be":"Бялград","name:bg":"Белград","name:bn":"বেলগ্রেড","name:bo":"བེལ་གེ་རེ་ཌི།","name:br":"Beograd","name:bs":"Beograd","name:ca":"Belgrad","name:cs":"Bělehrad","name:cu":"Бѣлъ Градъ","name:cv":"Белград","name:cy":"Beograd","name:da":"Beograd","name:de":"Belgrad","name:el":"Βελιγράδι","name:en":"Belgrade","name:eo":"Beogrado","name:es":"Belgrado","name:et":"Belgrad","name:eu":"Belgrad","name:fa":"بلگراد","name:fi":"Belgrad","name:fo":"Beograd","name:fr":"Belgrade","name:fy":"Belgrado","name:ga":"Béalgrád","name:gd":"Belgrade","name:gl":"Belgrado","name:gv":"Belgraaid","name:he":"בלגרד","name:hi":"बॅलग्रेड","name:hr":"Beograd","name:ht":"Bèlgrad","name:hu":"Belgrád","name:hy":"Բելգրադ","name:id":"Beograd","name:ie":"Beograd","name:io":"Belgrade","name:is":"Belgrad","name:it":"Belgrado","name:ja":"ベオグラード","name:jv":"Beograd","name:ka":"ბელგრადი","name:kk":"Белград","name:kn":"ಬೆಲ್ಗ್ರಾದ್","name:ko":"베오그라드","name:ku":"Belgrad","name:kv":"Белград","name:la":"Belogradum","name:lb":"Belgrad","name:li":"Belgrado","name:lt":"Belgradas","name:lv":"Belgrada","name:mi":"Belgrade","name:mk":"Белград","name:ml":"ബെൽഗ്രേഡ്","name:mn":"Белград","name:mr":"बेलग्रेड","name:ms":"Belgrade","name:mt":"Belgrad","name:nl":"Belgrado","name:nn":"Beograd","name:no":"Beograd","name:oc":"Belgrad","name:os":"Белград","name:pl":"Belgrad","name:pt":"Belgrado","name:qu":"Beograd","name:ro":"Belgrad","name:ru":"Белград","name:sc":"Belgrado","name:sh":"Beograd","name:sk":"Belehrad","name:sl":"Beograd","name:sm":"Belgrade","name:so":"Belgaraad","name:sr":"Београд","name:sv":"Belgrad","name:ta":"பெல்கிறேட்","name:tg":"Белград","name:th":"เบลเกรด","name:tl":"Belgrade","name:tr":"Belgrad","name:tt":"Белград","name:ty":"Beograd","name:ug":"بېلگراد","name:uk":"Белград","name:ur":"بلغراد","name:vi":"Beograd","name:vo":"Beograd","name:yi":"בעלגראד","name:yo":"Belgrade","name:zh":"贝尔格莱德市/貝爾格勒市/貝爾格萊德","int_name":"Beograd","name:ace":"Belgrade","name:ast":"Belgráu","name:ckb":"بێلگراد","name:dsb":"Běłogrod","name:ext":"Belgradu","name:frp":"Bèlgrade","name:hif":"Belgrade","name:hsb":"Běłohród","name:jbo":"be'ograd","name:lad":"Belogrado","name:lij":"Belgraddo","name:nan":"Belgrade","name:nov":"Beograd","name:pap":"Belgrado","name:pnb":"بلغراد","name:sah":"Белград","name:scn":"Belgradu","name:sco":"Belgrade","name:udm":"Белград","name:vec":"Belgrado","name:war":"Belgrade","name:wuu":"贝尔格莱德","name:yue":"貝爾格萊德","old_name:de":"Griechisch Weißenburg","old_name:el":"Σιγγιδουνον","old_name:hr":"Biograd na Dunavu","old_name:hu":"Nándorfehérvár","old_name:la":"Singidunum","name:bat-smg":"Belgrads","name:roa-rup":"Biligrad","name:sr-Latn":"Beograd","name:zh-Hans":"贝尔格莱德","name:zh-Hant":"貝爾格勒市/貝爾格萊德","name:be-tarask":"Бялград","name:zh-Hant-HK":"貝爾格萊德","name:zh-Hant-TW":"貝爾格勒市"},"display_name":"Београд, Град Београд, Централна Србија, 11000, Србија","address":{"city":"Београд","county":"Град Београд","ISO3166-2-lvl6":"RS-00","state":"Централна Србија","postcode":"11000","country":"Србија","country_code":"rs"},"population":1166763,"osm_type":"node","osm_id":60571493,"type":"city","location":[20.4568974,44.8178131],"bbox":[20.2968974,44.6578131,20.6168974,44.9778131]}
{"name":"Панчево","other_names":{"name:ar":"بانتشيفو","name:cs":"Pančevo","name:da":"Pančevo","name:de":"Pantschowa","name:en":"Pančevo","name:es":"Pančevo","name:et":"Pančevo","name:fr":"Pančevo","name:hu":"Pancsova","name:lt":"Pančevas","name:ro":"Panciova","name:ru":"Панчево","name:sr":"Панчево","alt_name:en":"Panchevo","name:sr-Latn":"Pančevo"},"display_name":"Град Панчево, Јужнобанатски управни округ, Војводина, Србија","address":{"city":"Град Панчево","county":"Јужнобанатски управни округ","ISO3166-2-lvl6":"RS-04","state":"Војводина","ISO3166-2-lvl4":"RS-VO","country":"Србија","country_code":"rs"},"population":76203,"osm_type":"node","osm_id":253736569,"type":"city","location":[20.6399643,44.8705686],"bbox":[20.4799643,44.7105686,20.7999643,45.0305686]}
{"name":"Смедерево","other_names":{"name:ar":"سميديريفو","name:de":"Semendria","name:en":"Smederevo","name:es":"Smederevo","name:et":"Smederevo","name:fr":"Smederevo","name:hr":"Smederevo","name:hu":"Szendrő","name:la":"Semendria","name:ru":"Смедерево","name:sr":"Смедерево","name:tr":"Semendire","name:sr-Latn":"Smederevo"},"display_name":"Град Смедерево, Подунавски управни округ, Централна Србија, 11300, Србија","address":{"city":"Град Смедерево","county":"Подунавски управни округ","ISO3166-2-lvl6":"RS-10","state":"Централна Србија","postcode":"11300","country":"Србија","country_code":"rs"},"population":64175,"osm_type":"node","osm_id":359219458,"type":"city","location":[20.9271115,44.6651048],"bbox":[20.7671115,44.5051048,21.0871115,44.8251048]}
{"name":"Јагодина","other_names":{"name:ar":"ياغودينا","name:de":"Jagodina","name:en":"Jagodina","name:es":"Jagodina","name:et":"Jagodina","name:fr":"Jagodina","name:hr":"Jagodina","name:ru":"Ягодина","name:sl":"Jagodina","name:sr":"Јагодина","name:sr-Latn":"Jagodina"},"display_name":"Град Јагодина, Поморавски управни округ, Централна Србија, Србија","address":{"city":"Град Јагодина","county":"Поморавски управни округ","ISO3166-2-lvl6":"RS-13","state":"Централна Србија","country":"Србија","country_code":"rs"},"population":35589,"osm_type":"node","osm_id":367764183,"type":"city","location":[21.2607688,43.9794256],"bbox":[21.1007688,43.8194256,21.4207688,44.1394256]}
{"name":"Зајечар","other_names":{"name:bg":"Зайчар","name:de":"Zaječar","name:en":"Zaječar","name:ro":"Zăiceari","name:ru":"Заечар","name:sr":"Зајечар","old_name:de":"Zatitscher","name:sr-Latn":"Zaječar"},"display_name":"Град Зајечар, Зајечарски управни округ, Централна Србија, Србија","address":{"city":"Град Зајечар","county":"Зајечарски управни округ","ISO3166-2-lvl6":"RS-15","state":"Централна Србија","country":"Србија","country_code":"rs"},"population":43860,"osm_type":"node","osm_id":281664933,"type":"city","location":[22.2785536,43.9030925],"bbox":[22.1185536,43.7430925,22.4385536,44.0630925]}
{"name":"Бор","other_names":{"name:de":"Bor","name:en":"Bor","name:ro":"Bor","name:ru":"Бор","name:sr":"Бор","name:sr-Latn":"Bor"},"display_name":"Град Бор, Борски управни округ, Централна Србија, Србија","address":{"city":"Град Бор","county":"Борски управни округ","ISO3166-2-lvl6":"RS-14","state":"Централна Србија","country":"Србија","country_code":"rs"},"population":34160,"osm_type":"node","osm_id":622323437,"type":"city","location":[22.0991779,44.0778456],"bbox":[21.9391779,43.9178456,22.2591779,44.2378456]}
{"name":"Пожаревац","other_names":{"name:en":"Požarevac","name:he":"פוז'ארוואץ","name:hu":"Pozsarevác","name:lt":"Požarevacas","name:pl":"Pożarewac","name:ru":"Пожаревац","name:sr":"Пожаревац","name:zh":"波扎雷瓦茨","old_name:de":"Passarowitz","name:sr-Latn":"Požarevac"},"display_name":"Град Пожаревац, Браничевски управни округ, Централна Србија, Србија","address":{"city":"Град Пожаревац","county":"Браничевски управни округ","ISO3166-2-lvl6":"RS-11","state":"Централна Србија","country":"Србија","country_code":"rs"},"population":44183,"osm_type":"node","osm_id":1582764486,"type":"city","location":[21.1854,44.6199926],"bbox":[21.0254,44.4599926,21.3454,44.7799926]}
{"name":"Пирот","other_names":{"name:de":"Pirot","name:en":"Pirot","name:la":"Turres","name:nl":"Pirot","name:ru":"Пирот","name:sr":"Пирот","name:sr-Latn":"Pirot"},"display_name":"Град Пирот, Пиротски управни округ, Централна Србија, Србија","address":{"city":"Град Пирот","county":"Пиротски управни округ","ISO3166-2-lvl6":"RS-22","state":"Централна Србија","country":"Србија","country_code":"rs"},"population":38785,"osm_type":"node","osm_id":370352698,"type":"city","location":[22.5865039,43.1547342],"bbox":[22.4265039,42.9947342,22.7465039,43.3147342]}
{"name":"Сомбор","other_names":{"name:ar":"سومبور","name:be":"Сомбар","name:bg":"Сомбор","name:ce":"Сомбор","name:el":"Σόμπορ","name:en":"Sombor","name:fa":"سومبور","name:he":"סומבור","name:hr":"Sombor","name:hu":"Zombor","name:hy":"Սոմբոր","name:ja":"ソンボル","name:ko":"솜보르","name:la":"Somborinum","name:lv":"Sombora","name:mk":"Сомбор","name:ru":"Сомбор","name:sr":"Сомбор","name:tt":"Сомбор","name:uk":"Сомбор","name:ur":"سومبور","name:ckb":"سۆمبۆر","name:pnb":"سومبور","name:rue":"Зомбор","old_name:hu":"Czoborszentmihály","old_name:tr":"Sonbor","name:sr-Latn":"Sombor","name:zh-Hans":"松博尔","name:zh-Hant":"松博爾"},"display_name":"Град Сомбор, Западнобачки управни округ, Војводина, Србија","address":{"city":"Град Сомбор","county":"Западнобачки управни округ","ISO3166-2-lvl6":"RS-05","state":"Војводина","ISO3166-2-lvl4":"RS-VO","country":"Србија","country_code":"rs"},"population":51471,"osm_type":"node","osm_id":1145970042,"type":"city","location":[19.1147036,45.7727397],"bbox":[18.9547036,45.6127397,19.2747036,45.9327397]}
{"name":"Суботица","other_names":{"name:ar":"سوبتيتسا","name:da":"Subotica","name:de":"Subotica","name:el":"Σουμπότιτσα","name:en":"Subotica","name:es":"Subotica","name:et":"Subotica","name:fr":"Subotica","name:hr":"Subotica","name:hu":"Szabadka","name:lt":"Subotica","name:ru":"Суботица","name:sl":"Subotica","name:sr":"Суботица","name:uk":"Суботиця","old_name:de":"Maria-Theresiopel","name:sr-Latn":"Subotica"},"display_name":"Град Суботица, Севернобачки управни округ, Војводина, 24000, Србија","address":{"city":"Град Суботица","county":"Севернобачки управни округ","ISO3166-2-lvl6":"RS-01","state":"Војводина","ISO3166-2-lvl4":"RS-VO","postcode":"24000","country":"Србија","country_code":"rs"},"population":97910,"osm_type":"node","osm_id":1547830258,"type":"city","location":[19.6653273,46.1002058],"bbox":[19.5053273,45.9402058,19.8253273,46.2602058]}
{"name":"Нови Сад","other_names":{"name:af":"Novi Sad","name:ar":"نوفي ساد","name:ba":"Нови-Сад","name:be":"Нові-Сад","name:bg":"Нови Сад","name:br":"Novi Sad","name:bs":"Novi Sad","name:ca":"Novi Sad","name:ce":"Нови-Сад","name:cs":"Nový Sad","name:cu":"Новъ Садъ","name:da":"Novi Sad","name:de":"Novi Sad","name:el":"Νόβι Σαντ","name:en":"Novi Sad","name:eo":"Novi Sad","name:es":"Novi Sad","name:et":"Novi Sad","name:eu":"Novi Sad","name:fa":"نووی ساد","name:fi":"Novi Sad","name:fr":"Novi Sad","name:ga":"Novi Sad","name:gl":"Novi Sad","name:he":"נובי סאד","name:hr":"Novi Sad","name:hu":"Újvidék","name:hy":"Նովի Սադ","name:id":"Novi Sad","name:ie":"Novi Sad","name:io":"Novi Sad","name:it":"Novi Sad","name:ja":"ノヴィ・サド","name:jv":"Novi Sad","name:ka":"ნოვი-სადი","name:ko":"노비사드","name:ku":"Novî Sad","name:la":"Neoplanta","name:lt":"Novi Sadas","name:lv":"Novisada","name:mr":"नोव्ही साद","name:ms":"Novi Sad","name:na":"Novi Sad","name:nb":"Novi Sad","name:nl":"Novi Sad","name:nn":"Novi Sad","name:oc":"Novi Sad","name:os":"Нови-Сад","name:pl":"Nowy Sad","name:ps":"نووي ساد","name:pt":"Novi Sad","name:ro":"Novi Sad","name:ru":"Нови-Сад","name:sc":"Novi Sad","name:sk":"Nový Sad","name:sl":"Novi Sad","name:sq":"Novi Sad","name:sr":"Нови Сад","name:st":"Novi Sad","name:sv":"Novi Sad","name:sw":"Novi Sad","name:th":"นอวีซาด","name:tr":"Novi Sad","name:tt":"Нови-Сад","name:uk":"Новий Сад","name:ur":"نووی ساد","name:vi":"Novi Sad","name:vo":"Novi Sad","name:zh":"诺维萨德","name:ast":"Novi Sad","old_name":"Neoplanta","old_name:de":"Neusatz","name:sr-Latn":"Novi Sad","name:zh-Hans":"诺维萨德","name:zh-Hant":"諾維薩德"},"display_name":"Град Нови Сад, Јужнобачки управни округ, Војводина, 21000, Србија","address":{"city":"Град Нови Сад","county":"Јужнобачки управни округ","ISO3166-2-lvl6":"RS-06","state":"Војводина","ISO3166-2-lvl4":"RS-VO","postcode":"21000","country":"Србија","country_code":"rs"},"population":297815,"osm_type":"node","osm_id":59735022,"type":"city","location":[19.8451756,45.2551338],"bbox":[19.6851756,45.0951338,20.0051756,45.4151338]}
{"name":"Зрењанин","other_names":{"name:ar":"زرنجانین","name:be":"Зрэнянін","name:bg":"Зренянин","name:bs":"Zrenjanin","name:ca":"Zrenjanin","name:cs":"Zrenjanin","name:da":"Zrenjanin","name:de":"Großbetschkerek","name:el":"Ζρένιανιν","name:en":"Zrenjanin","name:eo":"Zrenjanin","name:es":"Zrenjanin","name:et":"Zrenjanin","name:fa":"زرنجانین","name:fr":"Zrenjanin","name:he":"זרניאנין","name:hr":"Zrenjanin","name:hu":"Nagybecskerek","name:id":"Zrenjanin","name:ie":"Zrenjanin","name:it":"Zrenjanin","name:ja":"ズレニャニン","name:jv":"Zrenjanin","name:ka":"ზრენიანინი","name:ko":"즈레냐닌","name:lt":"Zrenianinas","name:lv":"Zreņanina","name:mn":"Зренянин","name:ms":"Zrenjanin","name:nb":"Zrenjanin","name:nl":"Zrenjanin","name:nn":"Zrenjanin","name:os":"Зренянин","name:pl":"Zrenjanin","name:pt":"Zrenjanin","name:ro":"Zrenianin","name:ru":"Зренянин","name:sk":"Zreňanin","name:sl":"Zrenjanin","name:sq":"Zrenjanin","name:sr":"Зрењанин","name:sv":"Zrenjanin","name:tr":"Zrenjanin","name:tt":"Зренянин","name:uk":"Зренянин","name:ur":"زرینیانین","name:vi":"Zrenjanin","name:zh":"兹雷尼亚宁","name:rue":"Зрењанин","old_name":"Велики Бечкерек;Петровград","alt_name:ro":"Becicherecu Mare","old_name:sr":"Велики Бечкерек;Петровград","name:sr-Latn":"Zrenjanin","old_name:sr-Latn":"Veliki Bečkerek;Petrovgrad"},"display_name":"Град Зрењанин, Средњобанатски управни округ, Војводина, Србија","address":{"city":"Град Зрењанин","county":"Средњобанатски управни округ","ISO3166-2-lvl6":"RS-02","state":"Војводина","ISO3166-2-lvl4":"RS-VO","country":"Србија","country_code":"rs"},"population":79773,"osm_type":"node","osm_id":61721547,"type":"city","location":[20.3907614,45.3802683],"bbox":[20.2307614,45.2202683,20.5507614,45.5402683]}
{"name":"Кикинда","other_names":{"name:be":"Кікінда","name:bg":"Кикинда","name:ce":"Кикинда","name:el":"Κίκιντα","name:en":"Kikinda","name:fa":"کیکیندا","name:he":"קיקינדה","name:hu":"Nagykikinda","name:ja":"キキンダ","name:ko":"키킨다","name:lt":"Kikinda","name:mk":"Кикинда","name:nl":"Kikinda","name:ro":"Chichinda Mare","name:ru":"Кикинда","name:sk":"Kikinda","name:sr":"Кикинда","name:tt":"Кикинда","name:uk":"Кикинда","name:ur":"کیکیندا","name:ckb":"کیکیندا","name:pnb":"کیکندا","alt_name:de":"Großkikinda","old_name:ru":"Велика-Кикинда;Гросс-Кикинда;Надь-Кикинда","old_name:sr":"Велика Кикинда","old_name:uk":"Велика-Кикинда;Гросс-Кикинда;Надь-Кикинда","name:sr-Latn":"Kikinda","name:zh-Hans":"基金达","name:zh-Hant":"基金達","old_name:sr-Latn":"Velika Kikinda"},"display_name":"Град Кикинда, Севернобанатски управни округ, Војводина, Србија","address":{"city":"Град Кикинда","county":"Севернобанатски управни округ","ISO3166-2-lvl6":"RS-03","state":"Војводина","ISO3166-2-lvl4":"RS-VO","country":"Србија","country_code":"rs"},"population":38065,"osm_type":"node","osm_id":955603411,"type":"city","location":[20.4653054,45.8300065],"bbox":[20.3053054,45.6700065,20.6253054,45.9900065]}
{"name":"Вршац","other_names":{"name:cs":"Vršac","name:en":"Vršac","name:he":"ורשאץ","name:hu":"Versec","name:ro":"Vârșeț","name:ru":"Вршац","name:sr":"Вршац","old_name:de":"Werschetz","name:sr-Latn":"Vršac"},"display_name":"Град Вршац, Јужнобанатски управни округ, Војводина, Србија","address":{"city":"Град Вршац","county":"Јужнобанатски управни округ","ISO3166-2-lvl6":"RS-04","state":"Војводина","ISO3166-2-lvl4":"RS-VO","country":"Србија","country_code":"rs"},"population":36040,"osm_type":"node","osm_id":1340352822,"type":"city","location":[21.2960485,45.1211263],"bbox":[21.1360485,44.9611263,21.4560485,45.2811263]}