{"name":"Пожаревац","other_names":{"name:en":"Pozarevac","name:sr":"Пожаревац","name:sr-Latn":"Požarevac"},"display_name":"Пожаревац, Градска општина Пожаревац, Град Пожаревац, Браничевски управни округ, Централна Србија, 12000, Србија","address":{"town":"Пожаревац","city_district":"Градска општина Пожаревац","city":"Град Пожаревац","county":"Браничевски управни округ","ISO3166-2-lvl6":"RS-11","state":"Централна Србија","postcode":"12000","country":"Србија","country_code":"rs"},"population":44183,"osm_type":"relation","osm_id":6308411,"type":"administrative","location":[21.178462131908464,44.6173388],"bbox":[21.0863025,44.5744942,21.2392339,44.6601968]}
{"name":"Пријепоље","other_names":{"name:de":"Prijepolje","name:en":"Prijepolje","name:ru":"Приеполье","name:sr":"Пријепоље","name:sr-Latn":"Prijepolje"},"display_name":"Пријепоље, Општина Пријепоље, Златиборски управни округ, Централна Србија, 31300, Србија","address":{"town":"Пријепоље","city":"Општина Пријепоље","county":"Златиборски управни округ","ISO3166-2-lvl6":"RS-16","state":"Централна Србија","postcode":"31300","country":"Србија","country_code":"rs"},"population":13330,"osm_type":"node","osm_id":292550323,"type":"town","location":[19.6493525,43.389209],"bbox":[19.6093525,43.349209,19.6893525,43.429209]}
{"name":"Прибој","other_names":{"name:en":"Priboj","name:ru":"Прибой","name:sr":"Прибој","name:sr-Latn":"Priboj"},"display_name":"Прибој, Општина Прибој, Златиборски управни округ, Централна Србија, 31330, Србија","address":{"town":"Прибој","city":"Општина Прибој","county":"Златиборски управни округ","ISO3166-2-lvl6":"RS-16","state":"Централна Србија","postcode":"31330","country":"Србија","country_code":"rs"},"population":14920,"osm_type":"node","osm_id":361573409,"type":"town","location":[19.5258167,43.5828497],"bbox":[19.4858167,43.5428497,19.5658167,43.6228497]}
{"name":"Бајина Башта","other_names":{"name:de":"Bajina Bašta","name:en":"Bajina Basta","name:ru":"Баина-Башта","name:sr":"Бајина Башта","name:sr-Latn":"Bajina Bašta"},"display_name":"Бајина Башта, Општина Бајина Башта, Златиборски управни округ, Централна Србија, 31250, Србија","address":{"town":"Бајина Башта","city":"Општина Бајина Башта","county":"Златиборски управни округ","ISO3166-2-lvl6":"RS-16","state":"Централна Србија","postcode":"31250","country":"Србија","country_code":"rs"},"population":9148,"osm_type":"node","osm_id":1668987214,"type":"town","location":[19.5660149,43.9712226],"bbox":[19.5260149,43.9312226,19.6060149,44.0112226]}
{"name":"Мали Зворник","other_names":{"name:en":"Mali Zvornik","name:sr":"Мали Зворник","name:sr-Latn":"Mali Zvornik"},"display_name":"Мали Зворник, Општина Мали Зворник, Мачвански управни округ, Централна Србија, 15318, Србија","address":{"town":"Мали Зворник","city":"Општина Мали Зворник","county":"Мачвански управни округ","ISO3166-2-lvl6":"RS-08","state":"Централна Србија","postcode":"15318","country":"Србија","country_code":"rs"},"population":4407,"osm_type":"node","osm_id":1646895901,"type":"town","location":[19.1069253,44.3736328],"bbox":[19.0669253,44.3336328,19.1469253,44.4136328]}
{"name":"Бања Ковиљача","other_names":{"name:ar":"بانيا كوفيلياتشا","name:de":"Banja Koviljača","name:en":"Banja Koviljaca","name:ru":"Баня-Ковиляча","name:sr":"Бања Ковиљача","name:zh":"巴尼亞科維利亞查","name:sr-Latn":"Banja Koviljača"},"display_name":"Бања Ковиљача, Град Лозница, Мачвански управни округ, Централна Србија, 15316, Србија","address":{"town":"Бања Ковиљача","city":"Град Лозница","county":"Мачвански управни округ","ISO3166-2-lvl6":"RS-08","state":"Централна Србија","postcode":"15316","country":"Србија","country_code":"rs"},"population":5151,"osm_type":"node","osm_id":648487805,"type":"town","location":[19.1585984,44.5138269],"bbox":[19.1185984,44.4738269,19.1985984,44.5538269]}
{"name":"Крупањ","other_names":{"name:en":"Krupanj","name:ru":"Крупань","name:sr":"Крупањ","name:sr-Latn":"Krupanj"},"display_name":"Крупањ, Општина Крупањ, Мачвански управни округ, Централна Србија, 15314, Србија","address":{"town":"Крупањ","city":"Општина Крупањ","county":"Мачвански управни округ","ISO3166-2-lvl6":"RS-08","state":"Централна Србија","postcode":"15314","country":"Србија","country_code":"rs"},"population":4912,"osm_type":"node","osm_id":1914550945,"type":"town","location":[19.3628418,44.365632],"bbox":[19.3228418,44.325632,19.4028418,44.405632]}
{"name":"Мачванска Митровица","other_names":{"name:en":"Macvanska Mitrovica","name:hu":"Szenterenye","name:sr":"Мачванска Митровица","name:sr-Latn":"Mačvanska Mitrovica"},"display_name":"Мачванска Митровица, Град Сремска Митровица, Сремски управни округ, Војводина, 22202, Србија","address":{"town":"Мачванска Митровица","city":"Град Сремска Митровица","county":"Сремски управни округ","ISO3166-2-lvl6":"RS-07","state":"Војводина","ISO3166-2-lvl4":"RS-VO","postcode":"22202","country":"Србија","country_code":"rs"},"population":3873,"osm_type":"node","osm_id":1074944948,"type":"town","location":[19.5946213,44.9666021],"bbox":[19.5546213,44.9266021,19.6346213,45.0066021]}
{"name":"Тутин","other_names":{"name:en":"Tutin","name:ru":"Тутин","name:sr":"Тутин","name:sr-Latn":"Tutin"},"display_name":"Тутин, Општина Тутин, Рашки управни округ, Централна Србија, 36320, Србија","address":{"town":"Тутин","city":"Општина Тутин","county":"Рашки управни округ","ISO3166-2-lvl6":"RS-18","state":"Централна Србија","postcode":"36320","country":"Србија","country_code":"rs"},"population":9111,"osm_type":"node","osm_id":292556852,"type":"town","location":[20.3366918,42.9903848],"bbox":[20.2966918,42.9503848,20.3766918,43.0303848]}
{"name":"Сјеница","other_names":{"name:en":"Sjenica","name:ru":"Сьеница","name:sr":"Сјеница","name:sr-Latn":"Sjenica"},"display_name":"Сјеница, Општина Сјеница, Златиборски управни округ, Централна Србија, 36310, Србија","address":{"town":"Сјеница","city":"Општина Сјеница","county":"Златиборски управни округ","ISO3166-2-lvl6":"RS-16","state":"Централна Србија","postcode":"36310","country":"Србија","country_code":"rs"},"population":14060,"osm_type":"node","osm_id":292556435,"type":"town","location":[19.9991727,43.2729348],"bbox":[19.9591727,43.2329348,20.0391727,43.3129348]}
{"name":"Нова Варош","other_names":{"name:de":"Nova Varoš","name:en":"Nova Varoš","name:ru":"Нова-Варош","name:sr":"Нова Варош","name:sr-Latn":"Nova Varoš"},"display_name":"Нова Варош, Општина Нова Варош, Златиборски управни округ, Централна Србија, Србија","address":{"town":"Нова Варош","city":"Општина Нова Варош","county":"Златиборски управни округ","ISO3166-2-lvl6":"RS-16","state":"Централна Србија","country":"Србија","country_code":"rs"},"population":19982,"osm_type":"node","osm_id":292554643,"type":"town","location":[19.8154494,43.4597045],"bbox":[19.7754494,43.4197045,19.8554494,43.4997045]}
{"name":"Ивањица","other_names":{"name:en":"Ivanjica","name:hr":"Ivanjica","name:ru":"Иваница","name:sl":"Ivanjica","name:sr":"Ивањица","name:sr-Latn":"Ivanjica"},"display_name":"Ивањица, Општина Ивањица, Моравички управни округ, Централна Србија, 32250, Србија","address":{"town":"Ивањица","city":"Општина Ивањица","county":"Моравички управни округ","ISO3166-2-lvl6":"RS-17","state":"Централна Србија","postcode":"32250","country":"Србија","country_code":"rs"},"population":11750,"osm_type":"node","osm_id":429180325,"type":"town","location":[20.2304548,43.5816675],"bbox":[20.1904548,43.5416675,20.2704548,43.6216675]}
{"name":"Рашка","other_names":{"name:bg":"Рашка","name:cs":"Raška","name:de":"Raška","name:en":"Raška","name:eo":"Raška","name:es":"Raška","name:fr":"Raška","name:gl":"Raška","name:hr":"Raška","name:hu":"Raška","name:it":"Raška","name:ms":"Raška","name:nl":"Raška","name:pl":"Raška","name:pt":"Ráscia","name:ru":"Рашка","name:sl":"Raška","name:sr":"Рашка","name:tr":"Raşka","name:zh":"拉什卡","name:sr-Latn":"Raška"},"display_name":"Рашка, Општина Рашка, Рашки управни округ, Централна Србија, 36350, Србија","address":{"town":"Рашка","city":"Општина Рашка","county":"Рашки управни округ","ISO3166-2-lvl6":"RS-18","state":"Централна Србија","postcode":"36350","country":"Србија","country_code":"rs"},"population":6619,"osm_type":"node","osm_id":418640039,"type":"town","location":[20.6141348,43.2869592],"bbox":[20.5741348,43.2469592,20.6541348,43.3269592]}
{"name":"Баљевац","other_names":{"name:en":"Baljevac","name:sr":"Баљевац","name:sr-Latn":"Baljevac"},"display_name":"Баљевац, Општина Рашка, Рашки управни округ, Централна Србија, 36344, Србија","address":{"town":"Баљевац","city":"Општина Рашка","county":"Рашки управни округ","ISO3166-2-lvl6":"RS-18","state":"Централна Србија","postcode":"36344","country":"Србија","country_code":"rs"},"population":1482,"osm_type":"node","osm_id":1377812305,"type":"town","location":[20.6363945,43.3927867],"bbox":[20.5963945,43.3527867,20.6763945,43.4327867]}
{"name":"Јошаничка Бања","other_names":{"name:de":"Josanička Banja","name:en":"Josanicka Banja","name:sr":"Јошаничка Бања","name:sr-Latn":"Jošanička Banja"},"display_name":"Јошаничка Бања, Општина Рашка, Рашки управни округ, Централна Србија, 36345, Србија","address":{"town":"Јошаничка Бања","city":"Општина Рашка","county":"Рашки управни округ","ISO3166-2-lvl6":"RS-18","state":"Централна Србија","postcode":"36345","country":"Србија","country_code":"rs"},"population":1036,"osm_type":"node","osm_id":1690752186,"type":"town","location":[20.7497022,43.3893167],"bbox":[20.7097022,43.3493167,20.7897022,43.4293167]}
{"name":"Брус","other_names":{"name:en":"Brus","name:ru":"Брус","name:sr":"Брус","name:sr-Latn":"Brus"},"display_name":"Брус, Општина Брус, Расински управни округ, Централна Србија, 37220, Србија","address":{"town":"Брус","city":"Општина Брус","county":"Расински управни округ","ISO3166-2-lvl6":"RS-19","state":"Централна Србија","postcode":"37220","country":"Србија","country_code":"rs"},"population":4653,"osm_type":"node","osm_id":1356177847,"type":"town","location":[21.0313889,43.3843467],"bbox":[20.9913889,43.3443467,21.0713889,43.4243467]}
{"name":"Александровац","other_names":{"name:en":"Aleksandrovac","name:sr":"Александровац","name:sr-Latn":"Aleksandrovac"},"display_name":"Александровац, Општина Александровац, Расински управни округ, Централна Србија, 37230, Србија","address":{"town":"Александровац","city":"Општина Александровац","county":"Расински управни округ","ISO3166-2-lvl6":"RS-19","state":"Централна Србија","postcode":"37230","country":"Србија","country_code":"rs"},"population":6228,"osm_type":"node","osm_id":6302208836,"type":"town","location":[21.0465876,43.4586105],"bbox":[21.0065876,43.4186105,21.0865876,43.4986105]}
{"name":"Прешево","other_names":{"name:bg":"Прешево","name:ce":"Прешево","name:de":"Preševo","name:el":"Πρέσεβο","name:en":"Preševo","name:fa":"پریچو","name:ja":"プレシェヴォ","name:ko":"프레셰보","name:mk":"Прешево","name:ru":"Прешево","name:sq":"Presheva","name:sr":"Прешево","name:tr":"Preşova","name:tt":"Прешево","name:uk":"Прешево","name:zh":"普雷舍沃","name:pnb":"پریشیوو","alt_name:bg":"Прешово","alt_name:ja":"プレシェヴァ","alt_name:sq":"Preshevë","alt_name:tr":"Pireşova;Preşuva","name:sr-Latn":"Preševo"},"display_name":"Прешево, Општина Прешево, Пчињски управни округ, Централна Србија, 17523, Србија","address":{"town":"Прешево","city":"Општина Прешево","county":"Пчињски управни округ","ISO3166-2-lvl6":"RS-24","state":"Централна Србија","postcode":"17523","country":"Србија","country_code":"rs"},"population":13426,"osm_type":"node","osm_id":1599387506,"type":"town","location":[21.6490102,42.3095217],"bbox":[21.6090102,42.2695217,21.6890102,42.3495217]}
{"name":"Бујановац","other_names":{"name:de":"Bujanovac","name:en":"Bujanovac","name:ru":"Буяновац","name:sq":"Bujanoc","name:sr":"Бујановац","name:sr-Latn":"Bujanovac"},"display_name":"Бујановац, Општина Бујановац, Пчињски управни округ, Централна Србија, 17520, Србија","address":{"town":"Бујановац","city":"Општина Бујановац","county":"Пчињски управни округ","ISO3166-2-lvl6":"RS-24","state":"Централна Србија","postcode":"17520","country":"Србија","country_code":"rs"},"population":12011,"osm_type":"node","osm_id":1599387493,"type":"town","location":[21.7671276,42.4598455],"bbox":[21.7271276,42.4198455,21.8071276,42.4998455]}
{"name":"Сијаринска Бања","other_names":{"name:en":"Sijarinska Banja","name:sq":"Banja e Sijarinës","name:sr":"Сијаринска Бања","name:sr-Latn":"Sijarinska Banja"},"display_name":"Сијаринска Бања, Општина Медвеђа, Јабланички управни округ, Централна Србија, Србија","address":{"town":"Сијаринска Бања","city":"Општина Медвеђа","county":"Јабланички управни округ","ISO3166-2-lvl6":"RS-23","state":"Централна Србија","country":"Србија","country_code":"rs"},"population":376,"osm_type":"node","osm_id":2226445175,"type":"town","location":[21.6051424,42.775726],"bbox":[21.5651424,42.735726,21.6451424,42.815726]}
{"name":"Медвеђа","other_names":{"name:en":"Medvedja","name:mk":"Медвеѓа","name:ru":"Медведжя","name:sq":"Medvegja","name:sr":"Медвеђа","int_name":"Medvedja","name:sr-Latn":"Medveđa"},"display_name":"Медвеђа, Општина Медвеђа, Јабланички управни округ, Централна Србија, 16240, Србија","address":{"town":"Медвеђа","city":"Општина Медвеђа","county":"Јабланички управни округ","ISO3166-2-lvl6":"RS-23","state":"Централна Србија","postcode":"16240","country":"Србија","country_code":"rs"},"population":2810,"osm_type":"node","osm_id":2218758841,"type":"town","location":[21.5845267,42.842162],"bbox":[21.5445267,42.802162,21.6245267,42.882162]}
{"name":"Босилеград","other_names":{"name:bg":"Босилеград","name:el":"Μποσίλεγκραντ","name:en":"Bosilegrad","name:ru":"Босилеград","name:sr":"Босилеград","name:sr-Latn":"Bosilegrad"},"display_name":"Босилеград, Општина Босилеград, Пчињски управни округ, Централна Србија, 17540, Србија","address":{"town":"Босилеград","city":"Општина Босилеград","county":"Пчињски управни округ","ISO3166-2-lvl6":"RS-24","state":"Централна Србија","postcode":"17540","country":"Србија","country_code":"rs"},"population":2530,"osm_type":"node","osm_id":1600101444,"type":"town","location":[22.4732689,42.4996561],"bbox":[22.4332689,42.4596561,22.5132689,42.5396561]}
{"name":"Врањска Бања","other_names":{"name:en":"Vranjska Banja","name:ru":"Вранска-Баня","name:sr":"Врањска Бања","name:sr-Latn":"Vranjska Banja"},"display_name":"Градска општина Врањска Бања, Град Врање, Пчињски управни округ, Централна Србија, 17542, Србија","address":{"town":"Градска општина Врањска Бања","city":"Град Врање","county":"Пчињски управни округ","ISO3166-2-lvl6":"RS-24","state":"Централна Србија","postcode":"17542","country":"Србија","country_code":"rs"},"population":5347,"osm_type":"node","osm_id":2713205900,"type":"town","location":[22.0016973,42.5469074],"bbox":[21.9616973,42.5069074,22.0416973,42.5869074]}
{"name":"Владичин Хан","other_names":{"name:de":"Vladičin Han","name:en":"Vladicin Han","name:ru":"Владичин-Хан","name:sr":"Владичин Хан","name:sr-Latn":"Vladičin Han"},"display_name":"Владичин Хан, Општина Владичин Хан, Пчињски управни округ, Централна Србија, 17510, Србија","address":{"town":"Владичин Хан","city":"Општина Владичин Хан","county":"Пчињски управни округ","ISO3166-2-lvl6":"RS-24","state":"Централна Србија","postcode":"17510","country":"Србија","country_code":"rs"},"population":8338,"osm_type":"node","osm_id":1599253813,"type":"town","location":[22.0586214,42.7058676],"bbox":[22.0186214,42.6658676,22.0986214,42.7458676]}
{"name":"Вучје","other_names":{"name:en":"Vucje","name:sr":"Вучје","name:sr-Latn":"Vučje"},"display_name":"Вучје, Град Лесковац, Јабланички управни округ, Централна Србија, 16203, Србија","address":{"town":"Вучје","city":"Град Лесковац","county":"Јабланички управни округ","ISO3166-2-lvl6":"RS-23","state":"Централна Србија","postcode":"16203","country":"Србија","country_code":"rs"},"population":2865,"osm_type":"node","osm_id":2235551812,"type":"town","location":[21.9111809,42.8649674],"bbox":[21.8711809,42.8249674,21.9511809,42.9049674]}
{"name":"Грделица","other_names":{"name:en":"Grdelica","name:ru":"Грделица","name:sr":"Грделица","name:sr-Latn":"Grdelica"},"display_name":"Грделица, Град Лесковац, Јабланички управни округ, Централна Србија, 16220, Србија","address":{"town":"Грделица","city":"Град Лесковац","county":"Јабланички управни округ","ISO3166-2-lvl6":"RS-23","state":"Централна Србија","postcode":"16220","country":"Србија","country_code":"rs"},"population":2136,"osm_type":"node","osm_id":1446626105,"type":"town","location":[22.0754695,42.8904977],"bbox":[22.0354695,42.8504977,22.1154695,42.9304977]}
{"name":"Сурдулица","other_names":{"name:de":"Surdulica","name:en":"Surdulica","name:ru":"Сурдулица","name:sr":"Сурдулица","name:sr-Latn":"Surdulica"},"display_name":"Сурдулица, Општина Сурдулица, Пчињски управни округ, Централна Србија, 17530, Србија","address":{"town":"Сурдулица","city":"Општина Сурдулица","county":"Пчињски управни округ","ISO3166-2-lvl6":"RS-24","state":"Централна Србија","postcode":"17530","country":"Србија","country_code":"rs"},"population":10914,"osm_type":"node","osm_id":1386145708,"type":"town","location":[22.1701473,42.6919329],"bbox":[22.1301473,42.6519329,22.2101473,42.7319329]}
{"name":"Куршумлија","other_names":{"name:el":"Κουρσούμλια","name:en":"Kursumlija","name:hr":"Kuršumlija","name:ru":"Куршумлия","name:sl":"Kuršumlija","name:sr":"Куршумлија","name:sr-Latn":"Kuršumlija"},"display_name":"Куршумлија, Општина Куршумлија, Топлички управни округ, Централна Србија, 18430, Србија","address":{"town":"Куршумлија","city":"Општина Куршумлија","county":"Топлички управни округ","ISO3166-2-lvl6":"RS-21","state":"Централна Србија","postcode":"18430","country":"Србија","country_code":"rs"},"population":12866,"osm_type":"node","osm_id":449750290,"type":"town","location":[21.2718639,43.1380307],"bbox":[21.2318639,43.0980307,21.3118639,43.1780307]}
{"name":"Лебане","other_names":{"name:en":"Lebane","name:ru":"Лебане","name:sr":"Лебане","name:sr-Latn":"Lebane"},"display_name":"Лебане, Општина Лебане, Јабланички управни округ, Централна Србија, 16230, Србија","address":{"town":"Лебане","city":"Општина Лебане","county":"Јабланички управни округ","ISO3166-2-lvl6":"RS-23","state":"Централна Србија","postcode":"16230","country":"Србија","country_code":"rs"},"population":10004,"osm_type":"node","osm_id":1655844203,"type":"town","location":[21.7369521,42.9220453],"bbox":[21.6969521,42.8820453,21.7769521,42.9620453]}
{"name":"Блаце","other_names":{"name:en":"Blace","name:hr":"Blace","name:ru":"Блаце","name:sl":"Blace","name:sr":"Блаце","name:sr-Latn":"Blace"},"display_name":"Блаце, Општина Блаце, Топлички управни округ, Централна Србија, 18420, Србија","address":{"town":"Блаце","city":"Општина Блаце","county":"Топлички управни округ","ISO3166-2-lvl6":"RS-21","state":"Централна Србија","postcode":"18420","country":"Србија","country_code":"rs"},"population":5465,"osm_type":"node","osm_id":449622728,"type":"town","location":[21.2865967,43.2955155],"bbox":[21.2465967,43.2555155,21.3265967,43.3355155]}
{"name":"Алексинац","other_names":{"name:de":"Aleksinac","name:en":"Aleksinac","name:ru":"Алексинац","name:sr":"Алексинац","name:sr-Latn":"Aleksinac"},"display_name":"Алексинац, Општина Алексинац, Нишавски управни округ, Централна Србија, 18220, Србија","address":{"town":"Алексинац","city":"Општина Алексинац","county":"Нишавски управни округ","ISO3166-2-lvl6":"RS-20","state":"Централна Србија","postcode":"18220","country":"Србија","country_code":"rs"},"population":17171,"osm_type":"node","osm_id":1599387453,"type":"town","location":[21.70884,43.5405235],"bbox":[21.66884,43.5005235,21.74884,43.5805235]}
{"name":"Власотинце","other_names":{"name:ar":"فلاسوتينسي","name:en":"Vlasotince","name:ru":"Власотинце","name:sr":"Власотинце","name:sr-Latn":"Vlasotince"},"display_name":"Власотинце, Општина Власотинце, Јабланички управни округ, Централна Србија, 16210, Србија","address":{"town":"Власотинце","city":"Општина Власотинце","county":"Јабланички управни округ","ISO3166-2-lvl6":"RS-23","state":"Централна Србија","postcode":"16210","country":"Србија","country_code":"rs"},"population":12127,"osm_type":"node","osm_id":1931265009,"type":"town","location":[22.1281077,42.9652346],"bbox":[22.0881077,42.9252346,22.1681077,43.0052346]}
{"name":"Бела Паланка","other_names":{"name:en":"Bela Palanka","name:la":"Remesiana","name:nl":"Bela Palanka","name:ru":"Бела-Паланка","name:sr":"Бела Паланка","name:sr-Latn":"Bela Palanka"},"display_name":"Бела Паланка, Општина Бела Паланка, Пиротски управни округ, Централна Србија, Србија","address":{"town":"Бела Паланка","city":"Општина Бела Паланка","county":"Пиротски управни округ","ISO3166-2-lvl6":"RS-22","state":"Централна Србија","country":"Србија","country_code":"rs"},"population":8626,"osm_type":"node","osm_id":1631764889,"type":"town","location":[22.3112654,43.2179542],"bbox":[22.2712654,43.1779542,22.3512654,43.2579542]}
{"name":"Бабушница","other_names":{"name:en":"Babusnica","name:ru":"Бабушница","name:sr":"Бабушница","name:sr-Latn":"Babušnica"},"display_name":"Бабушница, Општина Бабушница, Пиротски управни округ, Централна Србија, 18330, Србија","address":{"town":"Бабушница","city":"Општина Бабушница","county":"Пиротски управни округ","ISO3166-2-lvl6":"RS-22","state":"Централна Србија","postcode":"18330","country":"Србија","country_code":"rs"},"population":4575,"osm_type":"node","osm_id":2147671483,"type":"town","location":[22.411508,43.067962],"bbox":[22.371508,43.027962,22.451508,43.107962]}
{"name":"Нишка Бања","other_names":{"name:en":"Niska Banja","name:sr":"Нишка Бања","name:sr-Latn":"Niška Banja"},"display_name":"Нишка Бања, Град Ниш, Нишавски управни округ, Централна Србија, 18205, Србија","address":{"town":"Нишка Бања","city":"Град Ниш","county":"Нишавски управни округ","ISO3166-2-lvl6":"RS-20","state":"Централна Србија","postcode":"18205","country":"Србија","country_code":"rs"},"population":4380,"osm_type":"node","osm_id":453820865,"type":"town","location":[22.0072312,43.2933122],"bbox":[21.9672312,43.2533122,22.0472312,43.3333122]}
{"name":"Сврљиг","other_names":{"name:de":"Svrljig","name:en":"Svrljig","name:ru":"Сврлиг","name:sr":"Сврљиг","name:sr-Latn":"Svrljig"},"display_name":"Сврљиг, Општина Сврљиг, Нишавски управни округ, Централна Србија, 18360, Србија","address":{"town":"Сврљиг","city":"Општина Сврљиг","county":"Нишавски управни округ","ISO3166-2-lvl6":"RS-20","state":"Централна Србија","postcode":"18360","country":"Србија","country_code":"rs"},"population":7553,"osm_type":"node","osm_id":1719514119,"type":"town","location":[22.1230473,43.4140419],"bbox":[22.0830473,43.3740419,22.1630473,43.4540419]}
{"name":"Књажевац","other_names":{"name:en":"Knjaževac","name:ru":"Князевац","name:sr":"Књажевац","name:sr-Latn":"Knjaževac"},"display_name":"Књажевац, Општина Књажевац, Зајечарски управни округ, Централна Србија, 19350, Србија","address":{"town":"Књажевац","city":"Општина Књажевац","county":"Зајечарски управни округ","ISO3166-2-lvl6":"RS-15","state":"Централна Србија","postcode":"19350","country":"Србија","country_code":"rs"},"population":19351,"osm_type":"node","osm_id":319343322,"type":"town","location":[22.2556547,43.5675155],"bbox":[22.2156547,43.5275155,22.2956547,43.6075155]}
{"name":"Златибор","other_names":{"name:el":"Ζλάτιμπορ","name:en":"Zlatibor","name:hr":"Zlatibor","name:ru":"Златибор","name:sl":"Zlatibor","name:sr":"Златибор","name:sr-Latn":"Zlatibor","old_name:-1893":"Кулашевац","old_name:1893-1946":"Краљева Вода","old_name:1946-1991":"Партизанске Воде"},"display_name":"Златибор, Општина Чајетина, Златиборски управни округ, Централна Србија, 31315, Србија","address":{"town":"Златибор","city":"Општина Чајетина","county":"Златиборски управни округ","ISO3166-2-lvl6":"RS-16","state":"Централна Србија","postcode":"31315","country":"Србија","country_code":"rs"},"population":2821,"osm_type":"node","osm_id":416382721,"type":"town","location":[19.6997891,43.7265428],"bbox":[19.6597891,43.6865428,19.7397891,43.7665428]}
{"name":"Севојно","other_names":{"name:en":"Sevojno","name:sr":"Севојно","name:sr-Latn":"Sevojno"},"display_name":"Градска општина Севојно, Град Ужице, Златиборски управни округ, Централна Србија, Србија","address":{"town":"Градска општина Севојно","city":"Град Ужице","county":"Златиборски управни округ","ISO3166-2-lvl6":"RS-16","state":"Централна Србија","country":"Србија","country_code":"rs"},"population":7101,"osm_type":"node","osm_id":254037149,"type":"town","location":[19.8976765,43.8455418],"bbox":[19.8576765,43.8055418,19.9376765,43.8855418]}
{"name":"Пожега","other_names":{"name:en":"Požega","name:hr":"Požega","name:ru":"Пожега","name:sl":"Požega","name:sr":"Пожега","name:sr-Latn":"Požega"},"display_name":"Пожега, Општина Пожега, Златиборски управни округ, Централна Србија, Србија","address":{"town":"Пожега","city":"Општина Пожега","county":"Златиборски управни округ","ISO3166-2-lvl6":"RS-16","state":"Централна Србија","country":"Србија","country_code":"rs"},"population":13206,"osm_type":"node","osm_id":254037064,"type":"town","location":[20.0356635,43.8459979],"bbox":[19.9956635,43.8059979,20.0756635,43.8859979]}
{"name":"Ариље","other_names":{"name:de":"Arilje","name:en":"Arilje","name:sr":"Ариље","name:sr-Latn":"Arilje"},"display_name":"Ариље, Општина Ариље, Златиборски управни округ, Централна Србија, Србија","address":{"town":"Ариље","city":"Општина Ариље","county":"Златиборски управни округ","ISO3166-2-lvl6":"RS-16","state":"Централна Србија","country":"Србија","country_code":"rs"},"population":6500,"osm_type":"node","osm_id":1607557596,"type":"town","location":[20.1003115,43.7505484],"bbox":[20.0603115,43.7105484,20.1403115,43.7905484]}
{"name":"Лучани","other_names":{"name:en":"Lucani","name:ru":"Лучани","name:sr":"Лучани","name:sr-Latn":"Lučani"},"display_name":"Лучани, Општина Лучани, Моравички управни округ, Централна Србија, 32240, Србија","address":{"town":"Лучани","city":"Општина Лучани","county":"Моравички управни округ","ISO3166-2-lvl6":"RS-17","state":"Централна Србија","postcode":"32240","country":"Србија","country_code":"rs"},"population":3387,"osm_type":"node","osm_id":1101409087,"type":"town","location":[20.1365353,43.8602275],"bbox":[20.0965353,43.8202275,20.1765353,43.9002275]}
{"name":"Гуча","other_names":{"name:en":"Guca","name:sr":"Гуча","name:sr-Latn":"Guča"},"display_name":"Гуча, Општина Лучани, Моравички управни округ, Централна Србија, 32230, Србија","address":{"town":"Гуча","city":"Општина Лучани","county":"Моравички управни округ","ISO3166-2-lvl6":"RS-17","state":"Централна Србија","postcode":"32230","country":"Србија","country_code":"rs"},"population":1755,"osm_type":"node","osm_id":868065380,"type":"town","location":[20.2269416,43.7772932],"bbox":[20.1869416,43.7372932,20.2669416,43.8172932]}
{"name":"Косјерић","other_names":{"name:de":"Kosjerić","name:en":"Kosjeric","name:hr":"Kosjerić","name:nl":"Kosjerić","name:ru":"Косьерич","name:sl":"Kosjerić","name:sr":"Косјерић","name:sr-Latn":"Kosjerić"},"display_name":"Косјерић (варош), Општина Косјерић, Златиборски управни округ, Централна Србија, Србија","address":{"town":"Косјерић (варош)","city":"Општина Косјерић","county":"Златиборски управни округ","ISO3166-2-lvl6":"RS-16","state":"Централна Србија","country":"Србија","country_code":"rs"},"population":3992,"osm_type":"node","osm_id":307650310,"type":"town","location":[19.9071184,43.9971574],"bbox":[19.8671184,43.9571574,19.9471184,44.0371574]}
{"name":"Дивчибаре","other_names":{"name:en":"Divcibare","name:sr":"Дивчибаре","name:sr-Latn":"Divčibare"},"display_name":"Дивчибаре, Град Ваљево, Колубарски управни округ, Централна Србија, 14204, Србија","address":{"town":"Дивчибаре","city":"Град Ваљево","county":"Колубарски управни округ","ISO3166-2-lvl6":"RS-09","state":"Централна Србија","postcode":"14204","country":"Србија","country_code":"rs"},"population":141,"osm_type":"node","osm_id":414655356,"type":"town","location":[19.9916368,44.1047561],"bbox":[19.9516368,44.0647561,20.0316368,44.1447561]}
{"name":"Мионица","other_names":{"name:en":"Mionica","name:hr":"Mionica","name:ru":"Мионица","name:sl":"Mionica","name:sr":"Мионица","name:sr-Latn":"Mionica"},"display_name":"Мионица, Општина Мионица, Колубарски управни округ, Централна Србија, 14242, Србија","address":{"town":"Мионица","city":"Општина Мионица","county":"Колубарски управни округ","ISO3166-2-lvl6":"RS-09","state":"Централна Србија","postcode":"14242","country":"Србија","country_code":"rs"},"population":1620,"osm_type":"node","osm_id":416476184,"type":"town","location":[20.084082,44.252921],"bbox":[20.044082,44.212921,20.124082,44.292921]}
{"name":"Љиг","other_names":{"name:en":"Ljig","name:hr":"Ljig","name:ru":"Лиг","name:sl":"Ljig","name:sr":"Љиг","name:sr-Latn":"Ljig"},"display_name":"Љиг, Општина Љиг, Колубарски управни округ, Централна Србија, 14240, Србија","address":{"town":"Љиг","city":"Општина Љиг","county":"Колубарски управни округ","ISO3166-2-lvl6":"RS-09","state":"Централна Србија","postcode":"14240","country":"Србија","country_code":"rs"},"population":2979,"osm_type":"node","osm_id":372815072,"type":"town","location":[20.2399384,44.225332],"bbox":[20.1999384,44.185332,20.2799384,44.265332]}
{"name":"Матарушка Бања","other_names":{"name:en":"Mataruska Banja","name:ru":"Матарушка Баня","name:sr":"Матарушка Бања","name:sr-Latn":"Mataruška Banja"},"display_name":"Матарушка Бања, Град Краљево, Рашки управни округ, Централна Србија, 36201, Србија","address":{"town":"Матарушка Бања","city":"Град Краљево","county":"Рашки управни округ","ISO3166-2-lvl6":"RS-18","state":"Централна Србија","postcode":"36201","country":"Србија","country_code":"rs"},"population":2950,"osm_type":"node","osm_id":1337493915,"type":"town","location":[20.6093678,43.6893066],"bbox":[20.5693678,43.6493066,20.6493678,43.7293066]}
{"name":"Рибница","other_names":{"name:en":"Ribnica","name:sr":"Рибница","name:sr-Latn":"Ribnica"},"display_name":"Рибница, Град Краљево, Рашки управни округ, Централна Србија, 36101, Србија","address":{"town":"Рибница","city":"Град Краљево","county":"Рашки управни округ","ISO3166-2-lvl6":"RS-18","state":"Централна Србија","postcode":"36101","country":"Србија","country_code":"rs"},"population":1624,"osm_type":"node","osm_id":5433205300,"type":"town","location":[20.6986927,43.6913511],"bbox":[20.6586927,43.6513511,20.7386927,43.7313511]}
{"name":"Врњачка Бања","other_names":{"name:de":"Vrnjačka Banja","name:en":"Vrnjacka Banja","name:fr":"Vrnjačka Banja","name:hr":"Vrnjačka Banja","name:ru":"Врнячка Баня","name:sl":"Vrnjačka Banja","name:sr":"Врњачка Бања","name:sr-Latn":"Vrnjačka Banja"},"display_name":"Врњачка Бања, Општина Врњачка Бања, Рашки управни округ, Централна Србија, 36210, Србија","address":{"town":"Врњачка Бања","city":"Општина Врњачка Бања","county":"Рашки управни округ","ISO3166-2-lvl6":"RS-18","state":"Централна Србија","postcode":"36210","country":"Србија","country_code":"rs"},"population":9912,"osm_type":"node","osm_id":416683959,"type":"town","location":[20.8929353,43.6221774],"bbox":[20.8529353,43.5821774,20.9329353,43.6621774]}
{"name":"Трстеник","other_names":{"name:en":"Trstenik","name:ru":"Трстеник","name:sr":"Трстеник","name:sr-Latn":"Trstenik"},"display_name":"Трстеник, Општина Трстеник, Расински управни округ, Централна Србија, 37240, Србија","address":{"town":"Трстеник","city":"Општина Трстеник","county":"Расински управни округ","ISO3166-2-lvl6":"RS-19","state":"Централна Србија","postcode":"37240","country":"Србија","country_code":"rs"},"population":17180,"osm_type":"node","osm_id":907047175,"type":"town","location":[20.9984448,43.620214],"bbox":[20.9584448,43.580214,21.0384448,43.660214]}
{"name":"Горњи Милановац","other_names":{"name:en":"Gornji Milanovac","name:lt":"Gorni Milanovacas","name:ru":"Горни-Милановац","name:sr":"Горњи Милановац","name:sr-Latn":"Gornji Milanovac"},"display_name":"Горњи Милановац, Општина Горњи Милановац, Моравички управни округ, Централна Србија, 32300, Србија","address":{"town":"Горњи Милановац","city":"Општина Горњи Милановац","county":"Моравички управни округ","ISO3166-2-lvl6":"RS-17","state":"Централна Србија","postcode":"32300","country":"Србија","country_code":"rs"},"population":23982,"osm_type":"node","osm_id":355055009,"type":"town","location":[20.4600377,44.0243159],"bbox":[20.4200377,43.9843159,20.5000377,44.0643159]}
{"name":"Топола","other_names":{"name:en":"Topola","name:hr":"Topola","name:ru":"Топола","name:sl":"Topola","name:sr":"Топола","name:sr-Latn":"Topola"},"display_name":"Топола, Општина Топола, Шумадијски управни округ, Централна Србија, 34310, Србија","address":{"town":"Топола","city":"Општина Топола","county":"Шумадијски управни округ","ISO3166-2-lvl6":"RS-12","state":"Централна Србија","postcode":"34310","country":"Србија","country_code":"rs"},"population":4973,"osm_type":"node","osm_id":419136775,"type":"town","location":[20.6797215,44.2544752],"bbox":[20.6397215,44.2144752,20.7197215,44.2944752]}
{"name":"Рача","other_names":{"name:en":"Raca","name:ru":"Рача","name:sr":"Рача","name:sr-Latn":"Rača"},"display_name":"Рача, Општина Рача, Шумадијски управни округ, Централна Србија, 34210, Србија","address":{"town":"Рача","city":"Општина Рача","county":"Шумадијски управни округ","ISO3166-2-lvl6":"RS-12","state":"Централна Србија","postcode":"34210","country":"Србија","country_code":"rs"},"population":2744,"osm_type":"node","osm_id":611866026,"type":"town","location":[20.9801511,44.2253438],"bbox":[20.9401511,44.1853438,21.0201511,44.2653438]}
{"name":"Лајковац","other_names":{"name:en":"Lajkovac","name:hr":"Lajkovac","name:ru":"Лайковац","name:sl":"Lajkovac","name:sr":"Лајковац","name:sr-Latn":"Lajkovac"},"display_name":"Лајковац, Општина Лајковац, Колубарски управни округ, Централна Србија, 14224, Србија","address":{"town":"Лајковац","city":"Општина Лајковац","county":"Колубарски управни округ","ISO3166-2-lvl6":"RS-09","state":"Централна Србија","postcode":"14224","country":"Србија","country_code":"rs"},"population":3249,"osm_type":"node","osm_id":417187593,"type":"town","location":[20.1658213,44.3698615],"bbox":[20.1258213,44.3298615,20.2058213,44.4098615]}
{"name":"Уб","other_names":{"name:en":"Ub","name:hr":"Ub","name:ru":"Уб","name:sr":"Уб","name:sr-Latn":"Ub"},"display_name":"Уб, Општина Уб, Колубарски управни округ, Централна Србија, 14210, Србија","address":{"town":"Уб","city":"Општина Уб","county":"Колубарски управни округ","ISO3166-2-lvl6":"RS-09","state":"Централна Србија","postcode":"14210","country":"Србија","country_code":"rs"},"population":6018,"osm_type":"node","osm_id":417200414,"type":"town","location":[20.0737772,44.456203],"bbox":[20.0337772,44.416203,20.1137772,44.496203]}
{"name":"Лазаревац","other_names":{"name:de":"Zenobitz","name:en":"Lazarevac","name:ru":"Лазаревац","name:sr":"Лазаревац","name:sr-Latn":"Lazarevac"},"display_name":"Лазаревац, Градска општина Лазаревац, Град Београд, Централна Србија, 11550, Србија","address":{"town":"Лазаревац","city":"Градска општина Лазаревац","county":"Град Београд","ISO3166-2-lvl6":"RS-00","state":"Централна Србија","postcode":"11550","country":"Србија","country_code":"rs"},"population":23600,"osm_type":"node","osm_id":561313083,"type":"town","location":[20.261033,44.3815176],"bbox":[20.221033,44.3415176,20.301033,44.4215176]}
{"name":"Обреновац","other_names":{"name:de":"Obrenowatz","name:en":"Obrenovac","name:lt":"Obrenovacas","name:pl":"Obrenovac","name:ru":"Обреновац","name:sr":"Обреновац","name:zh":"奧布雷諾瓦茨","old_name":"Палеж","name:sr-Latn":"Obrenovac","old_name:sr-Latn":"Palež"},"display_name":"Обреновац, Градска општина Обреновац, Град Београд, Централна Србија, 11500, Србија","address":{"town":"Обреновац","city":"Градска општина Обреновац","county":"Град Београд","ISO3166-2-lvl6":"RS-00","state":"Централна Србија","postcode":"11500","country":"Србија","country_code":"rs"},"population":25429,"osm_type":"node","osm_id":61721018,"type":"town","location":[20.2014318,44.654833],"bbox":[20.1614318,44.614833,20.2414318,44.694833]}
{"name":"Умка","other_names":{"name:en":"Umka","name:sr":"Умка","name:sr-Latn":"Umka"},"display_name":"Умка, Градска општина Чукарица, Град Београд, Централна Србија, 11260, Србија","address":{"town":"Умка","city":"Градска општина Чукарица","county":"Град Београд","ISO3166-2-lvl6":"RS-00","state":"Централна Србија","postcode":"11260","country":"Србија","country_code":"rs"},"population":5272,"osm_type":"node","osm_id":1437082478,"type":"town","location":[20.3050863,44.6785303],"bbox":[20.2650863,44.6385303,20.3450863,44.7185303]}
{"name":"Остружница","other_names":{"name:en":"Ostruznica","name:sr":"Остружница","name:sr-Latn":"Ostružnica"},"display_name":"Остружница, Градска општина Чукарица, Град Београд, Централна Србија, 11260, Србија","address":{"town":"Остружница","city":"Градска општина Чукарица","county":"Град Београд","ISO3166-2-lvl6":"RS-00","state":"Централна Србија","postcode":"11260","country":"Србија","country_code":"rs"},"population":4218,"osm_type":"node","osm_id":1461320774,"type":"town","location":[20.3191998,44.7285552],"bbox":[20.2791998,44.6885552,20.3591998,44.7685552]}
{"name":"Сурчин","other_names":{"name:en":"Surcin","name:sr":"Сурчин","name:sr-Latn":"Surčin"},"display_name":"Сурчин, Градска општина Сурчин, Град Београд, Централна Србија, 11271, Србија","address":{"town":"Сурчин","city":"Градска општина Сурчин","county":"Град Београд","ISO3166-2-lvl6":"RS-00","state":"Централна Србија","postcode":"11271","country":"Србија","country_code":"rs"},"population":18205,"osm_type":"node","osm_id":1531134087,"type":"town","location":[20.2701685,44.7910362],"bbox":[20.2301685,44.7510362,20.3101685,44.8310362]}
{"name":"Стара Пазова","other_names":{"name:de":"Alt-Pasua","name:en":"Stara Pazova","name:hu":"Ópazova","name:ru":"Стара-Пазова","name:sr":"Стара Пазова","name:sr-Latn":"Stara Pazova"},"display_name":"Стара Пазова, Општина Стара Пазова, Сремски управни округ, Војводина, 22300, Србија","address":{"town":"Стара Пазова","city":"Општина Стара Пазова","county":"Сремски управни округ","ISO3166-2-lvl6":"RS-07","state":"Војводина","ISO3166-2-lvl4":"RS-VO","postcode":"22300","country":"Србија","country_code":"rs"},"population":18602,"osm_type":"node","osm_id":600576574,"type":"town","location":[20.1588763,44.9846077],"bbox":[20.1188763,44.9446077,20.1988763,45.0246077]}
{"name":"Добановци","other_names":{"name:en":"Dobanovci","name:sr":"Добановци","name:sr-Latn":"Dobanovci"},"display_name":"Добановци, Градска општина Сурчин, Град Београд, Централна Србија, 11272, Србија","address":{"town":"Добановци","city":"Градска општина Сурчин","county":"Град Београд","ISO3166-2-lvl6":"RS-00","state":"Централна Србија","postcode":"11272","country":"Србија","country_code":"rs"},"population":8503,"osm_type":"node","osm_id":2192314762,"type":"town","location":[20.2228552,44.8275822],"bbox":[20.1828552,44.7875822,20.2628552,44.8675822]}
{"name":"Аранђеловац","other_names":{"name:en":"Arandjelovac","name:hr":"Aranđelovac","name:ru":"Аранджеловац","name:sl":"Aranđelovac","name:sr":"Аранђеловац","int_name":"Arandjelovac","name:sr-Latn":"Aranđelovac"},"display_name":"Аранђеловац, Општина Аранђеловац, Шумадијски управни округ, Централна Србија, 34300, Србија","address":{"town":"Аранђеловац","city":"Општина Аранђеловац","county":"Шумадијски управни округ","ISO3166-2-lvl6":"RS-12","state":"Централна Србија","postcode":"34300","country":"Србија","country_code":"rs"},"population":24309,"osm_type":"node","osm_id":419138241,"type":"town","location":[20.5572396,44.3074611],"bbox":[20.5172396,44.2674611,20.5972396,44.3474611]}
{"name":"Младеновац","other_names":{"name:en":"Mladenovac","name:ru":"Младеновац","name:sr":"Младеновац","name:sr-Latn":"Mladenovac"},"display_name":"Младеновац, Градска општина Младеновац, Град Београд, Централна Србија, 11400, Србија","address":{"town":"Младеновац","city":"Градска општина Младеновац","county":"Град Београд","ISO3166-2-lvl6":"RS-00","state":"Централна Србија","postcode":"11400","country":"Србија","country_code":"rs"},"population":23609,"osm_type":"node","osm_id":364942011,"type":"town","location":[20.6941535,44.4401166],"bbox":[20.6541535,44.4001166,20.7341535,44.4801166]}
{"name":"Сопот","other_names":{"name:en":"Sopot","name:ru":"Сопот","name:sr":"Сопот","name:sr-Latn":"Sopot"},"display_name":"Сопот, Градска општина Сопот, Град Београд, Централна Србија, 11450, Србија","address":{"town":"Сопот","city":"Градска општина Сопот","county":"Град Београд","ISO3166-2-lvl6":"RS-00","state":"Централна Србија","postcode":"11450","country":"Србија","country_code":"rs"},"population":1920,"osm_type":"node","osm_id":1187056410,"type":"town","location":[20.5753544,44.5199324],"bbox":[20.5353544,44.4799324,20.6153544,44.5599324]}
{"name":"Велика Плана","other_names":{"name:en":"Velika Plana","name:ru":"Велика-Плана","name:sr":"Велика Плана","name:sr-Latn":"Velika Plana"},"display_name":"Велика Плана, Општина Велика Плана, Подунавски управни округ, Централна Србија, 11320, Србија","address":{"town":"Велика Плана","city":"Општина Велика Плана","county":"Подунавски управни округ","ISO3166-2-lvl6":"RS-10","state":"Централна Србија","postcode":"11320","country":"Србија","country_code":"rs"},"population":16210,"osm_type":"node","osm_id":1599448253,"type":"town","location":[21.075786,44.3324574],"bbox":[21.035786,44.2924574,21.115786,44.3724574]}
{"name":"Смедеревска Паланка","other_names":{"name:en":"Smederevska Palanka","name:ru":"Смедеревска-Паланка","name:sr":"Смедеревска Паланка","name:sr-Latn":"Smederevska Palanka"},"display_name":"Смедеревска Паланка, Општина Смедеревска Паланка, Подунавски управни округ, Централна Србија, 11420, Србија","address":{"town":"Смедеревска Паланка","city":"Општина Смедеревска Паланка","county":"Подунавски управни округ","ISO3166-2-lvl6":"RS-10","state":"Централна Србија","postcode":"11420","country":"Србија","country_code":"rs"},"population":23601,"osm_type":"node","osm_id":1599448252,"type":"town","location":[20.9579781,44.3658207],"bbox":[20.9179781,44.3258207,20.9979781,44.4058207]}
{"name":"Пиносава","other_names":{"name:en":"Pinosava","name:sr":"Пиносава","name:sr-Latn":"Pinosava"},"display_name":"Пиносава, Град Београд, Централна Србија, 11226, Србија","address":{"town":"Пиносава","county":"Град Београд","ISO3166-2-lvl6":"RS-00","state":"Централна Србија","postcode":"11226","country":"Србија","country_code":"rs"},"population":3151,"osm_type":"node","osm_id":2107020830,"type":"town","location":[20.4902819,44.6951252],"bbox":[20.4502819,44.6551252,20.5302819,44.7351252]}
{"name":"Бели Поток","other_names":{"name:en":"Beli Potok","name:sr":"Бели Поток","name:sr-Latn":"Beli Potok"},"display_name":"Бели Поток, Град Београд, Централна Србија, 11223, Србија","address":{"town":"Бели Поток","county":"Град Београд","ISO3166-2-lvl6":"RS-00","state":"Централна Србија","postcode":"11223","country":"Србија","country_code":"rs"},"population":3621,"osm_type":"node","osm_id":1200007164,"type":"town","location":[20.5189561,44.7055101],"bbox":[20.4789561,44.6655101,20.5589561,44.7455101]}
{"name":"Гроцка","other_names":{"name:en":"Grocka","name:ru":"Гроцка","name:sr":"Гроцка","name:sr-Latn":"Grocka"},"display_name":"Гроцка, Градска општина Гроцка, Град Београд, Централна Србија, Србија","address":{"town":"Гроцка","county":"Град Београд","ISO3166-2-lvl6":"RS-00","state":"Централна Србија","country":"Србија","country_code":"rs"},"population":8300,"osm_type":"node","osm_id":354907052,"type":"town","location":[20.7170219,44.6709248],"bbox":[20.6770219,44.6309248,20.7570219,44.7109248]}
{"name":"Овча","other_names":{"name:de":"Gisellenhain","name:en":"Ovca","name:hu":"Bárányos","name:ro":"Ofcea","name:sr":"Овча","alt_name:hu":"Ovcsa","alt_name:ro":"Ovcea","name:sr-Latn":"Ovča"},"display_name":"Овча, Град Београд, Централна Србија, 11212, Србија","address":{"town":"Овча","county":"Град Београд","ISO3166-2-lvl6":"RS-00","state":"Централна Србија","postcode":"11212","country":"Србија","country_code":"rs"},"population":2742,"osm_type":"node","osm_id":353475811,"type":"town","location":[20.5351997,44.8883078],"bbox":[20.4951997,44.8483078,20.5751997,44.9283078]}
{"name":"Борча","other_names":{"name:ar":"بورتشا","name:bg":"Борча","name:el":"Μπόρτσα","name:en":"Borca","name:fa":"بورچا","name:hr":"Borča","name:hu":"Borcsa","name:ro":"Borcea","name:ru":"Борча","name:sl":"Borča","name:sr":"Борча","name:ckb":"بۆرچا","name:sr-Latn":"Borča"},"display_name":"Борча, Градска општина Палилула, Град Београд, Централна Србија, 11211, Србија","address":{"town":"Борча","suburb":"Градска општина Палилула","county":"Град Београд","ISO3166-2-lvl6":"RS-00","state":"Централна Србија","postcode":"11211","country":"Србија","country_code":"rs"},"population":46086,"osm_type":"node","osm_id":353467823,"type":"town","location":[20.4570078,44.8773292],"bbox":[20.4170078,44.8373292,20.4970078,44.9173292]}
{"name":"Старчево","other_names":{"name:en":"Starčevo","name:hu":"Tárcsó","name:sr":"Старчево","name:sr-Latn":"Starčevo"},"display_name":"Старчево, Град Панчево, Јужнобанатски управни округ, Војводина, 26232, Србија","address":{"town":"Старчево","city":"Град Панчево","county":"Јужнобанатски управни округ","ISO3166-2-lvl6":"RS-04","state":"Војводина","ISO3166-2-lvl4":"RS-VO","postcode":"26232","country":"Србија","country_code":"rs"},"population":7473,"osm_type":"node","osm_id":1075543696,"type":"town","location":[20.6998149,44.8100472],"bbox":[20.6598149,44.7700472,20.7398149,44.8500472]}
{"name":"Качарево","other_names":{"name:en":"Kacarevo","name:hu":"Ferenchalom","name:sr":"Качарево","name:sr-Latn":"Kačarevo"},"display_name":"Качарево, Град Панчево, Јужнобанатски управни округ, Војводина, Србија","address":{"town":"Качарево","city":"Град Панчево","county":"Јужнобанатски управни округ","ISO3166-2-lvl6":"RS-04","state":"Војводина","ISO3166-2-lvl4":"RS-VO","country":"Србија","country_code":"rs"},"population":7100,"osm_type":"node","osm_id":810274491,"type":"town","location":[20.6995481,44.9665856],"bbox":[20.6595481,44.9265856,20.7395481,45.0065856]}
{"name":"Ковин","other_names":{"name:cs":"Kovin","name:en":"Kovin","name:hu":"Kevevára","name:ru":"Ковин","name:sr":"Ковин","name:sr-Latn":"Kovin"},"display_name":"Ковин, Општина Ковин, Јужнобанатски управни округ, Војводина, 26220, Србија","address":{"town":"Ковин","city":"Општина Ковин","county":"Јужнобанатски управни округ","ISO3166-2-lvl6":"RS-04","state":"Војводина","ISO3166-2-lvl4":"RS-VO","postcode":"26220","country":"Србија","country_code":"rs"},"population":13515,"osm_type":"node","osm_id":848393787,"type":"town","location":[20.9781361,44.7412405],"bbox":[20.9381361,44.7012405,21.0181361,44.7812405]}
{"name":"Ћићевац","other_names":{"name:en":"Cicevac","name:ru":"Чичевац","name:sr":"Ћићевац","name:sr-Latn":"Ćićevac"},"display_name":"Ћићевац, Општина Ћићевац, Расински управни округ, Централна Србија, 37210, Србија","address":{"town":"Ћићевац","city":"Општина Ћићевац","county":"Расински управни округ","ISO3166-2-lvl6":"RS-19","state":"Централна Србија","postcode":"37210","country":"Србија","country_code":"rs"},"population":5094,"osm_type":"node","osm_id":1599441292,"type":"town","location":[21.441026,43.7202753],"bbox":[21.401026,43.6802753,21.481026,43.7602753]}
{"name":"Параћин","other_names":{"name:en":"Paraćin","name:mk":"Параќин","name:ru":"Парачин","name:sr":"Параћин","name:sr-Latn":"Paraćin"},"display_name":"Параћин, Општина Параћин, Поморавски управни округ, Централна Србија, 35250, Србија","address":{"town":"Параћин","city":"Општина Параћин","county":"Поморавски управни округ","ISO3166-2-lvl6":"RS-13","state":"Централна Србија","postcode":"35250","country":"Србија","country_code":"rs"},"population":25292,"osm_type":"node","osm_id":1599441250,"type":"town","location":[21.4099615,43.8636301],"bbox":[21.3699615,43.8236301,21.4499615,43.9036301]}
{"name":"Ћуприја","other_names":{"name:en":"Ćuprija","name:la":"Horreum Margi","name:ru":"Чуприя","name:sr":"Ћуприја","name:sr-Latn":"Ćuprija"},"display_name":"Ћуприја, Општина Ћуприја, Поморавски управни округ, Централна Србија, 35230, Србија","address":{"town":"Ћуприја","city":"Општина Ћуприја","county":"Поморавски управни округ","ISO3166-2-lvl6":"RS-13","state":"Централна Србија","postcode":"35230","country":"Србија","country_code":"rs"},"population":20585,"osm_type":"node","osm_id":1599441293,"type":"town","location":[21.3712355,43.9335612],"bbox":[21.3312355,43.8935612,21.4112355,43.9735612]}
{"name":"Ражањ","other_names":{"name:en":"Razanj","name:ru":"Ржань","name:sr":"Ражањ","name:sr-Latn":"Ražanj"},"display_name":"Ражањ, Општина Ражањ, Нишавски управни округ, Централна Србија, 37215, Србија","address":{"town":"Ражањ","city":"Општина Ражањ","county":"Нишавски управни округ","ISO3166-2-lvl6":"RS-20","state":"Централна Србија","postcode":"37215","country":"Србија","country_code":"rs"},"population":1245,"osm_type":"node","osm_id":2258265756,"type":"town","location":[21.5489925,43.6724063],"bbox":[21.5089925,43.6324063,21.5889925,43.7124063]}
{"name":"Деспотовац","other_names":{"name:en":"Despotovac","name:ru":"Деспотовац","name:sr":"Деспотовац","name:sr-Latn":"Despotovac"},"display_name":"Деспотовац, Општина Деспотовац, Поморавски управни округ, Централна Србија, 35213, Србија","address":{"town":"Деспотовац","city":"Општина Деспотовац","county":"Поморавски управни округ","ISO3166-2-lvl6":"RS-13","state":"Централна Србија","postcode":"35213","country":"Србија","country_code":"rs"},"population":4363,"osm_type":"node","osm_id":2743400105,"type":"town","location":[21.4366052,44.0954702],"bbox":[21.3966052,44.0554702,21.4766052,44.1354702]}
{"name":"Лапово","other_names":{"name:en":"Lapovo","name:hr":"Lapovo","name:ru":"Лапово","name:sl":"Lapovo","name:sr":"Лапово","name:sr-Latn":"Lapovo"},"display_name":"Лапово (варошица), Општина Лапово, Шумадијски управни округ, Централна Србија, Србија","address":{"town":"Лапово (варошица)","city":"Општина Лапово","county":"Шумадијски управни округ","ISO3166-2-lvl6":"RS-12","state":"Централна Србија","country":"Србија","country_code":"rs"},"population":7143,"osm_type":"node","osm_id":367764418,"type":"town","location":[21.1047905,44.1854337],"bbox":[21.0647905,44.1454337,21.1447905,44.2254337]}
{"name":"Свилајнац","other_names":{"name:de":"Svilajnac","name:en":"Svilajnac","name:ru":"Свилайнац","name:sr":"Свилајнац","name:sr-Latn":"Svilajnac"},"display_name":"Свилајнац, Општина Свилајнац, Поморавски управни округ, Централна Србија, 35210, Србија","address":{"town":"Свилајнац","city":"Општина Свилајнац","county":"Поморавски управни округ","ISO3166-2-lvl6":"RS-13","state":"Централна Србија","postcode":"35210","country":"Србија","country_code":"rs"},"population":9131,"osm_type":"node","osm_id":4008189663,"type":"town","location":[21.1947272,44.2333085],"bbox":[21.1547272,44.1933085,21.2347272,44.2733085]}
{"name":"Ресавица","other_names":{"name:en":"Resavica","name:sr":"Ресавица","name:sr-Latn":"Resavica"},"display_name":"Ресавица, Општина Деспотовац, Поморавски управни округ, Централна Србија, 35237, Србија","address":{"town":"Ресавица","city":"Општина Деспотовац","county":"Поморавски управни округ","ISO3166-2-lvl6":"RS-13","state":"Централна Србија","postcode":"35237","country":"Србија","country_code":"rs"},"population":2035,"osm_type":"node","osm_id":1644763323,"type":"town","location":[21.5812259,44.039525],"bbox":[21.5412259,43.999525,21.6212259,44.079525]}
{"name":"Сокобања","other_names":{"name:bg":"Соко баня","name:en":"Sokobanja","name:ru":"Соко-Баня","name:sr":"Сокобања","name:sr-Latn":"Sokobanja"},"display_name":"Сокобања, Општина Сокобања, Зајечарски управни округ, Централна Србија, 18230, Србија","address":{"town":"Сокобања","city":"Општина Сокобања","county":"Зајечарски управни округ","ISO3166-2-lvl6":"RS-15","state":"Централна Србија","postcode":"18230","country":"Србија","country_code":"rs"},"population":7982,"osm_type":"node","osm_id":1918674245,"type":"town","location":[21.8730724,43.6440513],"bbox":[21.8330724,43.6040513,21.9130724,43.6840513]}
{"name":"Бољевац","other_names":{"name:en":"Boljevac","name:ro":"Bulioţ","name:ru":"Болевац","name:sr":"Бољевац","name:sr-Latn":"Boljevac"},"display_name":"Бољевац, Општина Бољевац, Зајечарски управни округ, Централна Србија, 19370, Србија","address":{"town":"Бољевац","city":"Општина Бољевац","county":"Зајечарски управни округ","ISO3166-2-lvl6":"RS-15","state":"Централна Србија","postcode":"19370","country":"Србија","country_code":"rs"},"population":3333,"osm_type":"node","osm_id":1270099743,"type":"town","location":[21.9587438,43.8304776],"bbox":[21.9187438,43.7904776,21.9987438,43.8704776]}
{"name":"Боговина","other_names":{"name:en":"Bogovina","name:ro":"Bogovina","name:sr":"Боговина","name:sr-Latn":"Bogovina"},"display_name":"Боговина, Општина Бољевац, Зајечарски управни округ, Централна Србија, 19372, Србија","address":{"town":"Боговина","city":"Општина Бољевац","county":"Зајечарски управни округ","ISO3166-2-lvl6":"RS-15","state":"Централна Србија","postcode":"19372","country":"Србија","country_code":"rs"},"population":1151,"osm_type":"node","osm_id":4260586058,"type":"town","location":[21.9458063,43.9004053],"bbox":[21.9058063,43.8604053,21.9858063,43.9404053]}
{"name":"Петровац на Млави","other_names":{"name:ru":"Петровац-на-Млави","name:sr":"Петровац на Млави","old_name":"Петровац","name:sr-Latn":"Petrovac na Mlavi"},"display_name":"Петровац на Млави, Општина Петровац на Млави, Браничевски управни округ, Централна Србија, 12300, Србија","address":{"town":"Петровац на Млави","city":"Општина Петровац на Млави","county":"Браничевски управни округ","ISO3166-2-lvl6":"RS-11","state":"Централна Србија","postcode":"12300","country":"Србија","country_code":"rs"},"population":7851,"osm_type":"node","osm_id":1582397428,"type":"town","location":[21.4170749,44.378261],"bbox":[21.3770749,44.338261,21.4570749,44.418261]}
{"name":"Кучево","other_names":{"name:en":"Kucevo","name:ru":"Кучево","name:sr":"Кучево","name:sr-Latn":"Kučevo"},"display_name":"Кучево, Општина Кучево, Браничевски управни округ, Централна Србија, Србија","address":{"town":"Кучево","city":"Општина Кучево","county":"Браничевски управни округ","ISO3166-2-lvl6":"RS-11","state":"Централна Србија","country":"Србија","country_code":"rs"},"population":4506,"osm_type":"node","osm_id":1582514089,"type":"town","location":[21.6693022,44.4782165],"bbox":[21.6293022,44.4382165,21.7093022,44.5182165]}
{"name":"Костолац","other_names":{"name:en":"Kostolac","name:la":"Viminacium","name:ru":"Костолац","name:sr":"Костолац","name:sr-Latn":"Kostolac"},"display_name":"Костолац, Град Пожаревац, Браничевски управни округ, Централна Србија, 12208, Србија","address":{"town":"Костолац","city":"Град Пожаревац","county":"Браничевски управни округ","ISO3166-2-lvl6":"RS-11","state":"Централна Србија","postcode":"12208","country":"Србија","country_code":"rs"},"population":9313,"osm_type":"node","osm_id":1636186997,"type":"town","location":[21.1710906,44.7149424],"bbox":[21.1310906,44.6749424,21.2110906,44.7549424]}
{"name":"Бела Црква","other_names":{"name:cs":"Bílý Kostel","name:de":"Weißkirchen","name:en":"Bela Crkva","name:hu":"Fehértemplom","name:ro":"Biserica Albă","name:ru":"Бела-Црква","name:sr":"Бела Црква","name:sr-Latn":"Bela Crkva"},"display_name":"Бела Црква, Општина Бела Црква, Јужнобанатски управни округ, Војводина, 26340, Србија","address":{"town":"Бела Црква","city":"Општина Бела Црква","county":"Јужнобанатски управни округ","ISO3166-2-lvl6":"RS-04","state":"Војводина","ISO3166-2-lvl4":"RS-VO","postcode":"26340","country":"Србија","country_code":"rs"},"population":9080,"osm_type":"node","osm_id":988017157,"type":"town","location":[21.422117,44.901587],"bbox":[21.382117,44.861587,21.462117,44.941587]}
{"name":"Велико Градиште","other_names":{"name:en":"Veliko Gradiste","name:ru":"Велико-Градиште","name:sr":"Велико Градиште","name:zh":"大格拉迪什泰","name:sr-Latn":"Veliko Gradište"},"display_name":"Велико Градиште, Општина Велико Градиште, Браничевски управни округ, Централна Србија, 12220, Србија","address":{"town":"Велико Градиште","city":"Општина Велико Градиште","county":"Браничевски управни округ","ISO3166-2-lvl6":"RS-11","state":"Централна Србија","postcode":"12220","country":"Србија","country_code":"rs"},"population":5658,"osm_type":"node","osm_id":1854673213,"type":"town","location":[21.5161946,44.7629166],"bbox":[21.4761946,44.7229166,21.5561946,44.8029166]}
{"name":"Мајданпек","other_names":{"name:en":"Majdanpek","name:ro":"Maidan","name:ru":"Майданпек","name:sr":"Мајданпек","name:sr-Latn":"Majdanpek"},"display_name":"Мајданпек, Општина Мајданпек, Борски управни округ, Централна Србија, Србија","address":{"town":"Мајданпек","city":"Општина Мајданпек","county":"Борски управни округ","ISO3166-2-lvl6":"RS-14","state":"Централна Србија","country":"Србија","country_code":"rs"},"population":7699,"osm_type":"node","osm_id":2874458661,"type":"town","location":[21.9359228,44.4224552],"bbox":[21.8959228,44.3824552,21.9759228,44.4624552]}
{"name":"Доњи Милановац","other_names":{"name:en":"Donji Milanovac","name:ru":"Дони-Милановац","name:sr":"Доњи Милановац","name:sr-Latn":"Donji Milanovac"},"display_name":"Доњи Милановац, Општина Мајданпек, Борски управни округ, Централна Србија, Србија","address":{"town":"Доњи Милановац","city":"Општина Мајданпек","county":"Борски управни округ","ISO3166-2-lvl6":"RS-14","state":"Централна Србија","country":"Србија","country_code":"rs"},"osm_type":"node","osm_id":474498205,"type":"town","location":[22.1523003,44.462747],"bbox":[22.1123003,44.422747,22.1923003,44.502747]}
{"name":"Брза Паланка","other_names":{"name:en":"Brza Palanka","name:sr":"Брза Паланка","name:sr-Latn":"Brza Palanka"},"display_name":"Брза Паланка, Општина Кладово, Борски управни округ, Централна Србија, Србија","address":{"town":"Брза Паланка","city":"Општина Кладово","county":"Борски управни округ","ISO3166-2-lvl6":"RS-14","state":"Централна Србија","country":"Србија","country_code":"rs"},"osm_type":"node","osm_id":827013474,"type":"town","location":[22.452723,44.4842353],"bbox":[22.412723,44.4442353,22.492723,44.5242353]}
{"name":"Димитровград","other_names":{"name:bg":"Цариброд","name:en":"Dimitrovgrad","name:nl":"Dimitrovgrad","name:ru":"Димитровград","name:sr":"Димитровград","old_name":"Цариброд","name:sr-Latn":"Dimitrovgrad"},"display_name":"Димитровград, Општина Димитровград, Пиротски управни округ, Централна Србија, 18320, Србија","address":{"town":"Димитровград","city":"Општина Димитровград","county":"Пиротски управни округ","ISO3166-2-lvl6":"RS-22","state":"Централна Србија","postcode":"18320","country":"Србија","country_code":"rs"},"population":6968,"osm_type":"node","osm_id":470377833,"type":"town","location":[22.7781993,43.0157433],"bbox":[22.7381993,42.9757433,22.8181993,43.0557433]}
{"name":"Неготин","other_names":{"name:en":"Negotin","name:ro":"Nigotin","name:ru":"Неготин","name:sr":"Неготин","name:sr-Latn":"Negotin"},"display_name":"Неготин, Општина Неготин, Борски управни округ, Централна Србија, 19300, Србија","address":{"town":"Неготин","city":"Општина Неготин","county":"Борски управни округ","ISO3166-2-lvl6":"RS-14","state":"Централна Србија","postcode":"19300","country":"Србија","country_code":"rs"},"population":17758,"osm_type":"node","osm_id":317236520,"type":"town","location":[22.5308921,44.2271199],"bbox":[22.4908921,44.1871199,22.5708921,44.2671199]}
{"name":"Кладово","other_names":{"name:en":"Kladovo","name:he":"קלאדובו","name:ro":"Cladova","name:ru":"Кладово","name:sr":"Кладово","name:he1":"קלדובו","name:sr-Latn":"Kladovo"},"display_name":"Кладово, Општина Кладово, Борски управни округ, Централна Србија, Србија","address":{"town":"Кладово","city":"Општина Кладово","county":"Борски управни округ","ISO3166-2-lvl6":"RS-14","state":"Централна Србија","country":"Србија","country_code":"rs"},"population":8869,"osm_type":"node","osm_id":827013614,"type":"town","location":[22.6136517,44.6093983],"bbox":[22.5736517,44.5693983,22.6536517,44.6493983]}
{"name":"Апатин","other_names":{"name:en":"Apatin","name:hu":"Apatin","name:lt":"Apatinas","name:ru":"Апатин","name:sr":"Апатин","name:sr-Latn":"Apatin"},"display_name":"Апатин, Општина Апатин, Западнобачки управни округ, Војводина, 25260, Србија","address":{"town":"Апатин","city":"Општина Апатин","county":"Западнобачки управни округ","ISO3166-2-lvl6":"RS-05","state":"Војводина","ISO3166-2-lvl4":"RS-VO","postcode":"25260","country":"Србија","country_code":"rs"},"population":17411,"osm_type":"node","osm_id":312150016,"type":"town","location":[18.9817862,45.6712544],"bbox":[18.9417862,45.6312544,19.0217862,45.7112544]}
{"name":"Шид","other_names":{"name:bs":"Šid","name:de":"Schid","name:en":"Šid","name:hr":"Šid","name:hu":"Sid","name:ru":"Шид","name:sr":"Шид","name:sr-Latn":"Šid"},"display_name":"Шид, Општина Шид, Сремски управни округ, Војводина, 22240, Србија","address":{"town":"Шид","city":"Општина Шид","county":"Сремски управни округ","ISO3166-2-lvl6":"RS-07","state":"Војводина","ISO3166-2-lvl4":"RS-VO","postcode":"22240","country":"Србија","country_code":"rs"},"population":14893,"osm_type":"node","osm_id":469278751,"type":"town","location":[19.2291509,45.126371],"bbox":[19.1891509,45.086371,19.2691509,45.166371]}
{"name":"Бачка Паланка","other_names":{"name:ar":"باتشكا بالانكا","name:be":"Бачка-Паланка","name:bg":"Бачка паланка","name:ce":"Бачка Паланка","name:en":"Bačka Palanka","name:fa":"باچکا پلانکا","name:he":"באצ'קה פאלאנקה","name:hu":"Palánka","name:ko":"바치카팔란카","name:mk":"Бачка Паланка","name:ru":"Бачка-Паланка","name:sk":"Báčska Palanka","name:sr":"Бачка Паланка","name:tr":"Baçka Palanka","name:tt":"Бачка Паланка","name:uk":"Бачка-Паланка","name:ckb":"باچکا پالانکا","name:pnb":"باچکا پلانکا","alt_name:de":"Plankenburg","old_name:tr":"Küçük Hisar","name:sr-Latn":"Bačka Palanka","name:zh-Hans":"巴奇卡帕兰卡","name:zh-Hant":"巴奇卡帕蘭卡"},"display_name":"Бачка Паланка, Општина Бачка Паланка, Јужнобачки управни округ, Војводина, 21400, Србија","address":{"town":"Бачка Паланка","city":"Општина Бачка Паланка","county":"Јужнобачки управни округ","ISO3166-2-lvl6":"RS-06","state":"Војводина","ISO3166-2-lvl4":"RS-VO","postcode":"21400","country":"Србија","country_code":"rs"},"population":28239,"osm_type":"node","osm_id":1647188835,"type":"town","location":[19.3966495,45.2497012],"bbox":[19.3566495,45.2097012,19.4366495,45.2897012]}
{"name":"Бач","other_names":{"name:de":"Batsch","name:en":"Bač","name:hu":"Bács","name:sr":"Бач","name:sr-Latn":"Bač"},"display_name":"Бач, Општина Бач, Јужнобачки управни округ, Војводина, 21420, Србија","address":{"town":"Бач","city":"Општина Бач","county":"Јужнобачки управни округ","ISO3166-2-lvl6":"RS-06","state":"Војводина","ISO3166-2-lvl4":"RS-VO","postcode":"21420","country":"Србија","country_code":"rs"},"population":5399,"osm_type":"node","osm_id":312083066,"type":"town","location":[19.2368045,45.3916793],"bbox":[19.1968045,45.3516793,19.2768045,45.4316793]}
{"name":"Оџаци","other_names":{"name:en":"Odzaci","name:hu":"Hódság","name:ru":"Оджаци","name:sr":"Оџаци","old_name:de":"Hodschag","name:sr-Latn":"Odžaci"},"display_name":"Оџаци, Општина Оџаци, Западнобачки управни округ, Војводина, 25250, Србија","address":{"town":"Оџаци","city":"Општина Оџаци","county":"Западнобачки управни округ","ISO3166-2-lvl6":"RS-05","state":"Војводина","ISO3166-2-lvl4":"RS-VO","postcode":"25250","country":"Србија","country_code":"rs"},"population":9021,"osm_type":"node","osm_id":312083073,"type":"town","location":[19.2597368,45.5058662],"bbox":[19.2197368,45.4658662,19.2997368,45.5458662]}
{"name":"Бачки Петровац","other_names":{"name:en":"Backi Petrovac","name:hu":"Petrőc","name:sk":"Báčsky Petrovec","name:sr":"Бачки Петровац","name:sr-Latn":"Bački Petrovac"},"display_name":"Бачки Петровац, Општина Бачки Петровац, Јужнобачки управни округ, Војводина, 21470, Србија","address":{"town":"Бачки Петровац","city":"Општина Бачки Петровац","county":"Јужнобачки управни округ","ISO3166-2-lvl6":"RS-06","state":"Војводина","ISO3166-2-lvl4":"RS-VO","postcode":"21470","country":"Србија","country_code":"rs"},"population":6727,"osm_type":"node","osm_id":249463599,"type":"town","location":[19.5914331,45.3600646],"bbox":[19.5514331,45.3200646,19.6314331,45.4000646]}
{"name":"Црвенка","other_names":{"name:en":"Crvenka","name:hu":"Cservenka","name:sr":"Црвенка","old_name:de":"Tscherwenka;Rotweil","name:sr-Latn":"Crvenka"},"display_name":"Црвенка, Општина Кула, Западнобачки управни округ, Војводина, 25220, Србија","address":{"town":"Црвенка","city":"Општина Кула","county":"Западнобачки управни округ","ISO3166-2-lvl6":"RS-05","state":"Војводина","ISO3166-2-lvl4":"RS-VO","postcode":"25220","country":"Србија","country_code":"rs"},"population":9001,"osm_type":"node","osm_id":1312746005,"type":"town","location":[19.4562036,45.6585062],"bbox":[19.4162036,45.6185062,19.4962036,45.6985062]}
{"name":"Кула","other_names":{"name:en":"Kula","name:hu":"Kúla","name:ru":"Кула","name:sr":"Кула","name:sr-Latn":"Kula"},"display_name":"Кула, Општина Кула, Западнобачки управни округ, Војводина, 25230, Србија","address":{"town":"Кула","city":"Општина Кула","county":"Западнобачки управни округ","ISO3166-2-lvl6":"RS-05","state":"Војводина","ISO3166-2-lvl4":"RS-VO","postcode":"25230","country":"Србија","country_code":"rs"},"population":17866,"osm_type":"node","osm_id":312166681,"type":"town","location":[19.5301174,45.6101491],"bbox":[19.4901174,45.5701491,19.5701174,45.6501491]}
{"name":"Врбас","other_names":{"name:en":"Vrbas","name:hu":"Verbász","name:ru":"Врбас","name:sr":"Врбас","name:rue":"Вербас","old_name:de":"Werbass","name:sr-Latn":"Vrbas"},"display_name":"Врбас, Општина Врбас, Јужнобачки управни округ, Војводина, 21460, Србија","address":{"town":"Врбас","city":"Општина Врбас","county":"Јужнобачки управни округ","ISO3166-2-lvl6":"RS-06","state":"Војводина","ISO3166-2-lvl4":"RS-VO","postcode":"21460","country":"Србија","country_code":"rs"},"population":24112,"osm_type":"node","osm_id":3722369896,"type":"town","location":[19.6470089,45.568028],"bbox":[19.6070089,45.528028,19.6870089,45.608028]}
{"name":"Бачка Топола","other_names":{"name:de":"Batschka Topola","name:en":"Bačka Topola","name:hu":"Topolya","name:ru":"Бачка-Топола","name:sr":"Бачка Топола","name:sr-Latn":"Bačka Topola"},"display_name":"Бачка Топола, Општина Бачка Топола, Севернобачки управни округ, Војводина, 23400, Србија","address":{"town":"Бачка Топола","city":"Општина Бачка Топола","county":"Севернобачки управни округ","ISO3166-2-lvl6":"RS-01","state":"Војводина","ISO3166-2-lvl4":"RS-VO","postcode":"23400","country":"Србија","country_code":"rs"},"population":16154,"osm_type":"node","osm_id":293191488,"type":"town","location":[19.6304705,45.8121657],"bbox":[19.5904705,45.7721657,19.6704705,45.8521657]}
{"name":"Рума","other_names":{"name:en":"Ruma","name:hu":"Ruma","name:ru":"Рума","name:sr":"Рума","name:sr-Latn":"Ruma"},"display_name":"Рума, Општина Рума, Сремски управни округ, Војводина, 22400, Србија","address":{"town":"Рума","city":"Општина Рума","county":"Сремски управни округ","ISO3166-2-lvl6":"RS-07","state":"Војводина","ISO3166-2-lvl4":"RS-VO","postcode":"22400","country":"Србија","country_code":"rs"},"population":30076,"osm_type":"node","osm_id":60583019,"type":"town","location":[19.8187834,45.0078322],"bbox":[19.7787834,44.9678322,19.8587834,45.0478322]}
{"name":"Ириг","other_names":{"name:en":"Irig","name:hu":"Ürög","name:sr":"Ириг","name:sr-Latn":"Irig"},"display_name":"Ириг, Општина Ириг, Сремски управни округ, Војводина, 22406, Србија","address":{"town":"Ириг","city":"Општина Ириг","county":"Сремски управни округ","ISO3166-2-lvl6":"RS-07","state":"Војводина","ISO3166-2-lvl4":"RS-VO","postcode":"22406","country":"Србија","country_code":"rs"},"population":4415,"osm_type":"node","osm_id":60583051,"type":"town","location":[19.861045,45.0995183],"bbox":[19.821045,45.0595183,19.901045,45.1395183]}
{"name":"Беочин","other_names":{"name:de":"Beotschin","name:en":"Beocin","name:hu":"Belcsény","name:nl":"Beočin","name:ru":"Беочин","name:sr":"Беочин","name:sr-Latn":"Beočin"},"display_name":"Беочин, Општина Беочин, Јужнобачки управни округ, Војводина, 21300, Србија","address":{"town":"Беочин","city":"Општина Беочин","county":"Јужнобачки управни округ","ISO3166-2-lvl6":"RS-06","state":"Војводина","ISO3166-2-lvl4":"RS-VO","postcode":"21300","country":"Србија","country_code":"rs"},"population":8037,"osm_type":"node","osm_id":1079222912,"type":"town","location":[19.7209347,45.2099153],"bbox":[19.6809347,45.1699153,19.7609347,45.2499153]}
{"name":"Футог","other_names":{"name:en":"Futog","name:hu":"Futak","name:sr":"Футог","name:sr-Latn":"Futog"},"display_name":"Футог, Град Нови Сад, Јужнобачки управни округ, Војводина, 21410, Србија","address":{"town":"Футог","city":"Град Нови Сад","county":"Јужнобачки управни округ","ISO3166-2-lvl6":"RS-06","state":"Војводина","ISO3166-2-lvl4":"RS-VO","postcode":"21410","country":"Србија","country_code":"rs"},"population":18641,"osm_type":"node","osm_id":250045632,"type":"town","location":[19.7064376,45.2373534],"bbox":[19.6664376,45.1973534,19.7464376,45.2773534]}
{"name":"Сремска Каменица","other_names":{"name:de":"Kamenitz","name:en":"Sremska Kamenica","name:hu":"Kamanc","name:ru":"Сремска-Каменица","name:sr":"Сремска Каменица","name:sr-Latn":"Sremska Kamenica"},"display_name":"Сремска Каменица, Град Нови Сад, Јужнобачки управни округ, Војводина, 21208, Србија","address":{"town":"Сремска Каменица","city":"Град Нови Сад","county":"Јужнобачки управни округ","ISO3166-2-lvl6":"RS-06","state":"Војводина","ISO3166-2-lvl4":"RS-VO","postcode":"21208","country":"Србија","country_code":"rs"},"population":12273,"osm_type":"node","osm_id":646984720,"type":"town","location":[19.8434089,45.2232006],"bbox":[19.8034089,45.1832006,19.8834089,45.2632006]}
{"name":"Сремски Карловци","other_names":{"name:ba":"Сремски-Карловци","name:be":"Срэмскі-Карлаўцы","name:bs":"Sremski Karlovci","name:ca":"Sremski Karlovci","name:cs":"Sremski Karlovci","name:da":"Sremski Karlovci","name:de":"Sremski Karlovci","name:el":"Σρέμσκι Κάρλοβτσι","name:en":"Sremski Karlovci","name:eo":"Sremski Karlovci","name:es":"Sremski Karlovci","name:fa":"سرمسکی کارلووتسی","name:fi":"Sremski Karlovci","name:fr":"Sremski Karlovci","name:he":"סרמסקי קרלובצי","name:hr":"Srijemski Karlovci","name:hu":"Karlóca","name:it":"Sremski Karlovci","name:ja":"スレムスキ・カルロヴツィ","name:ko":"스렘스키카를로브치","name:la":"Carolovicia","name:ms":"Sremski Karlovci","name:nl":"Sremski Karlovci","name:os":"Сремски-Карловци","name:pl":"Sremski Karlovci","name:ro":"Carloviț","name:ru":"Сремски-Карловичи","name:sl":"Sremski Karlovci","name:sr":"Сремски Карловци","name:sv":"Sremski Karlovci","name:tr":"Karlofça","name:uk":"Сремські Карловці","name:zh":"斯雷姆斯基卡尔洛夫奇","old_name:de":"Syrmisch-Karlowitz;Karlowitz","name:sr-Latn":"Sremski Karlovci"},"display_name":"Општина Сремски Карловци, Јужнобачки управни округ, Војводина, Србија","address":{"town":"Општина Сремски Карловци","county":"Јужнобачки управни округ","ISO3166-2-lvl6":"RS-06","state":"Војводина","ISO3166-2-lvl4":"RS-VO","country":"Србија","country_code":"rs"},"population":8750,"osm_type":"node","osm_id":1781688051,"type":"town","location":[19.9338336,45.2030463],"bbox":[19.8938336,45.1630463,19.9738336,45.2430463]}
{"name":"Петроварадин","other_names":{"name:bg":"Петроварадин","name:ce":"Петроварадин","name:de":"Peterwardein","name:en":"Petrovaradin","name:fa":"پترو وارادین","name:hr":"Petrovaradin","name:hu":"Pétervárad","name:ja":"ペトロヴァラディン","name:ka":"პეტროვარადინი","name:ko":"페트로바라딘","name:la":"Cusum","name:ru":"Петроварадин","name:sr":"Петроварадин","name:tt":"Петроварадин","name:uk":"Петроварадин","alt_name:ko":"페테르바러드;페테르바라다인","name:sr-Latn":"Petrovaradin","name:zh-Hans":"彼得罗瓦拉丁","name:zh-Hant":"彼得羅瓦拉丁"},"display_name":"Петроварадин, Град Нови Сад, Јужнобачки управни округ, Војводина, 21132, Србија","address":{"town":"Петроварадин","city":"Град Нови Сад","county":"Јужнобачки управни округ","ISO3166-2-lvl6":"RS-06","state":"Војводина","ISO3166-2-lvl4":"RS-VO","postcode":"21132","country":"Србија","country_code":"rs"},"population":14810,"osm_type":"node","osm_id":59735024,"type":"town","location":[19.8768737,45.2490082],"bbox":[19.8368737,45.2090082,19.9168737,45.2890082]}
{"name":"Инђија","other_names":{"name:en":"Indjija","name:hu":"Ingyia","name:ru":"Инджия","name:sr":"Инђија","int_name":"Indjija","name:sr-Latn":"Inđija"},"display_name":"Инђија, Општина Инђија, Сремски управни округ, Војводина, 22320, Србија","address":{"town":"Инђија","city":"Општина Инђија","county":"Сремски управни округ","ISO3166-2-lvl6":"RS-07","state":"Војводина","ISO3166-2-lvl4":"RS-VO","postcode":"22320","country":"Србија","country_code":"rs"},"population":26025,"osm_type":"node","osm_id":60349665,"type":"town","location":[20.0807338,45.0478559],"bbox":[20.0407338,45.0078559,20.1207338,45.0878559]}
{"name":"Тител","other_names":{"name:de":"Theisshügel","name:en":"Titel","name:hu":"Titel","name:sr":"Тител","name:sr-Latn":"Titel"},"display_name":"Тител, Општина Тител, Јужнобачки управни округ, Војводина, 21240, Србија","address":{"town":"Тител","city":"Општина Тител","county":"Јужнобачки управни округ","ISO3166-2-lvl6":"RS-06","state":"Војводина","ISO3166-2-lvl4":"RS-VO","postcode":"21240","country":"Србија","country_code":"rs"},"population":5294,"osm_type":"node","osm_id":353503238,"type":"town","location":[20.3060414,45.2043941],"bbox":[20.2660414,45.1643941,20.3460414,45.2443941]}
{"name":"Темерин","other_names":{"name:en":"Temerin","name:hu":"Temerin","name:sr":"Темерин","name:sr-Latn":"Temerin"},"display_name":"Темерин, Општина Темерин, Јужнобачки управни округ, Војводина, 21235, Србија","address":{"town":"Темерин","city":"Општина Темерин","county":"Јужнобачки управни округ","ISO3166-2-lvl6":"RS-06","state":"Војводина","ISO3166-2-lvl4":"RS-VO","postcode":"21235","country":"Србија","country_code":"rs"},"population":19661,"osm_type":"node","osm_id":1547830265,"type":"town","location":[19.8901507,45.4096587],"bbox":[19.8501507,45.3696587,19.9301507,45.4496587]}
{"name":"Бачки Јарак","other_names":{"name:en":"Backi Jarak","name:hu":"Tiszaistvánfalva","name:sr":"Бачки Јарак","name:sr-Latn":"Bački Jarak"},"display_name":"Бачки Јарак, Општина Темерин, Јужнобачки управни округ, Војводина, 21234, Србија","address":{"town":"Бачки Јарак","city":"Општина Темерин","county":"Јужнобачки управни округ","ISO3166-2-lvl6":"RS-06","state":"Војводина","ISO3166-2-lvl4":"RS-VO","postcode":"21234","country":"Србија","country_code":"rs"},"population":5687,"osm_type":"node","osm_id":249475093,"type":"town","location":[19.8753145,45.3711877],"bbox":[19.8353145,45.3311877,19.9153145,45.4111877]}
{"name":"Србобран","other_names":{"name:de":"Thomasberg","name:en":"Srbobran","name:hu":"Szenttamás","name:ru":"Србобран","name:sr":"Србобран","name:sr-Latn":"Srbobran"},"display_name":"Србобран, Општина Србобран, Јужнобачки управни округ, Војводина, 21480, Србија","address":{"town":"Србобран","city":"Општина Србобран","county":"Јужнобачки управни округ","ISO3166-2-lvl6":"RS-06","state":"Војводина","ISO3166-2-lvl4":"RS-VO","postcode":"21480","country":"Србија","country_code":"rs"},"population":12009,"osm_type":"node","osm_id":60580248,"type":"town","location":[19.7911219,45.5484758],"bbox":[19.7511219,45.5084758,19.8311219,45.5884758]}
{"name":"Жабаљ","other_names":{"name:en":"Žabalj","name:hu":"Zsablya","name:sr":"Жабаљ","old_name:de":"Josefdorf","name:sr-Latn":"Žabalj"},"display_name":"Жабаљ, Општина Жабаљ, Јужнобачки управни округ, Војводина, Србија","address":{"town":"Жабаљ","city":"Општина Жабаљ","county":"Јужнобачки управни округ","ISO3166-2-lvl6":"RS-06","state":"Војводина","ISO3166-2-lvl4":"RS-VO","country":"Србија","country_code":"rs"},"population":9107,"osm_type":"node","osm_id":249474977,"type":"town","location":[20.0637917,45.3728199],"bbox":[20.0237917,45.3328199,20.1037917,45.4128199]}
{"name":"Нови Бечеј","other_names":{"name:de":"Neu-Betsche","name:en":"Novi Becej","name:hu":"Törökbecse","name:pl":"Novi Beczej","name:ru":"Нови-Бечей","name:sr":"Нови Бечеј","name:zh":"新貝切伊","name:sr-Latn":"Novi Bečej"},"display_name":"Нови Бечеј, Општина Нови Бечеј, Средњобанатски управни округ, Војводина, 23272, Србија","address":{"town":"Нови Бечеј","city":"Општина Нови Бечеј","county":"Средњобанатски управни округ","ISO3166-2-lvl6":"RS-02","state":"Војводина","ISO3166-2-lvl4":"RS-VO","postcode":"23272","country":"Србија","country_code":"rs"},"population":13133,"osm_type":"node","osm_id":249478464,"type":"town","location":[20.1343581,45.5952571],"bbox":[20.0943581,45.5552571,20.1743581,45.6352571]}
{"name":"Бечеј","other_names":{"name:de":"Altbetsche","name:en":"Becej","name:hu":"Óbecse","name:sr":"Бечеј","name:sr-Latn":"Bečej"},"display_name":"Бечеј, Општина Бечеј, Јужнобачки управни округ, Војводина, 21220, Србија","address":{"town":"Бечеј","city":"Општина Бечеј","county":"Јужнобачки управни округ","ISO3166-2-lvl6":"RS-06","state":"Војводина","ISO3166-2-lvl4":"RS-VO","postcode":"21220","country":"Србија","country_code":"rs"},"population":23895,"osm_type":"node","osm_id":60352987,"type":"town","location":[20.0490085,45.6153745],"bbox":[20.0090085,45.5753745,20.0890085,45.6553745]}
{"name":"Опово","other_names":{"name:de":"Oppowa","name:en":"Opovo","name:hu":"Ópáva","name:sr":"Опово","name:sr-Latn":"Opovo"},"display_name":"Опово, Општина Опово, Јужнобанатски управни округ, Војводина, 26204, Србија","address":{"town":"Опово","city":"Општина Опово","county":"Јужнобанатски управни округ","ISO3166-2-lvl6":"RS-04","state":"Војводина","ISO3166-2-lvl4":"RS-VO","postcode":"26204","country":"Србија","country_code":"rs"},"population":4527,"osm_type":"node","osm_id":353483858,"type":"town","location":[20.4331827,45.0487194],"bbox":[20.3931827,45.0087194,20.4731827,45.0887194]}
{"name":"Ковачица","other_names":{"name:de":"Kowatschitza","name:en":"Kovačica","name:hu":"Antalfalva","name:ru":"Ковачица","name:sr":"Ковачица","name:sr-Latn":"Kovačica"},"display_name":"Ковачица, Општина Ковачица, Јужнобанатски управни округ, Војводина, 26210, Србија","address":{"town":"Ковачица","city":"Општина Ковачица","county":"Јужнобанатски управни округ","ISO3166-2-lvl6":"RS-04","state":"Војводина","ISO3166-2-lvl4":"RS-VO","postcode":"26210","country":"Србија","country_code":"rs"},"population":6259,"osm_type":"node","osm_id":809988090,"type":"town","location":[20.6200326,45.1119346],"bbox":[20.5800326,45.0719346,20.6600326,45.1519346]}
{"name":"Банатски Карловац","other_names":{"name:en":"Banatski Karlovac","name:hu":"Nagykárolyfalva","name:sr":"Банатски Карловац","name:sr-Latn":"Banatski Karlovac"},"display_name":"Банатски Карловац, Општина Алибунар, Јужнобанатски управни округ, Војводина, Србија","address":{"town":"Банатски Карловац","city":"Општина Алибунар","county":"Јужнобанатски управни округ","ISO3166-2-lvl6":"RS-04","state":"Војводина","ISO3166-2-lvl4":"RS-VO","country":"Србија","country_code":"rs"},"population":5082,"osm_type":"node","osm_id":1073502821,"type":"town","location":[21.0176284,45.0500316],"bbox":[20.9776284,45.0100316,21.0576284,45.0900316]}
{"name":"Алибунар","other_names":{"name:en":"Alibunar","name:hu":"Alibunár","name:sr":"Алибунар","name:sr-Latn":"Alibunar"},"display_name":"Алибунар, Општина Алибунар, Јужнобанатски управни округ, Војводина, 26310, Србија","address":{"town":"Алибунар","city":"Општина Алибунар","county":"Јужнобанатски управни округ","ISO3166-2-lvl6":"RS-04","state":"Војводина","ISO3166-2-lvl4":"RS-VO","postcode":"26310","country":"Србија","country_code":"rs"},"population":3007,"osm_type":"node","osm_id":1019014149,"type":"town","location":[20.966524,45.0800389],"bbox":[20.926524,45.0400389,21.006524,45.1200389]}
{"name":"Житиште","other_names":{"name:ar":"جيتيشتي","name:ca":"Žitište","name:cs":"Žitište","name:de":"Sankt Georgen an der Bega","name:en":"Zitiste","name:eo":"Ĵitiŝte","name:es":"Žitište","name:fa":"ژیتیشته","name:fr":"Žitište","name:hr":"Žitište","name:hu":"Bégaszentgyörgy","name:it":"Žitište","name:ko":"지티슈테","name:ms":"Žitište","name:nl":"Žitište","name:pl":"Žitište","name:ro":"Jitiște","name:sl":"Žitište","name:sr":"Житиште","name:tr":"Žitište","name:zh":"日蒂什泰","old_name":"Бегеј Светог Ђурђа","old_name:ro":"Sângiura;Sângeorgiu de Bega","old_name:sr":"Бегеј Светог Ђурђа","name:sr-Latn":"Žitište","old_name:sr-Latn":"Begej Svetog Đurđa"},"display_name":"Житиште, Општина Житиште, Средњобанатски управни округ, Војводина, 23310, Србија","address":{"town":"Житиште","city":"Општина Житиште","county":"Средњобанатски управни округ","ISO3166-2-lvl6":"RS-02","state":"Војводина","ISO3166-2-lvl4":"RS-VO","postcode":"23310","country":"Србија","country_code":"rs"},"population":2903,"osm_type":"node","osm_id":512051228,"type":"town","location":[20.5519957,45.4833996],"bbox":[20.5119957,45.4433996,20.5919957,45.5233996]}
{"name":"Јаша Томић","other_names":{"name:en":"Jasa Tomic","name:hu":"Módos","name:ro":"Modoș","name:sr":"Јаша Томић","name:sr-Latn":"Jaša Tomić"},"display_name":"Јаша Томић, Општина Сечањ, Средњобанатски управни округ, Војводина, Србија","address":{"town":"Јаша Томић","city":"Општина Сечањ","county":"Средњобанатски управни округ","ISO3166-2-lvl6":"RS-02","state":"Војводина","ISO3166-2-lvl4":"RS-VO","country":"Србија","country_code":"rs"},"population":2373,"osm_type":"node","osm_id":1074945061,"type":"town","location":[20.8564493,45.4465892],"bbox":[20.8164493,45.4065892,20.8964493,45.4865892]}
{"name":"Мол","other_names":{"name:en":"Mol","name:hu":"Mohol","name:sr":"Мол","name:sr-Latn":"Mol"},"display_name":"Мол, Општина Ада, Севернобанатски управни округ, Војводина, 24430, Србија","address":{"town":"Мол","city":"Општина Ада","county":"Севернобанатски управни округ","ISO3166-2-lvl6":"RS-03","state":"Војводина","ISO3166-2-lvl4":"RS-VO","postcode":"24430","country":"Србија","country_code":"rs"},"population":6009,"osm_type":"node","osm_id":971106814,"type":"town","location":[20.130055,45.7638971],"bbox":[20.090055,45.7238971,20.170055,45.8038971]}
{"name":"Ада","other_names":{"name:en":"Ada","name:hu":"Ada","name:ru":"Ада","name:sr":"Ада","name:sr-Latn":"Ada"},"display_name":"Ада, Општина Ада, Севернобанатски управни округ, Војводина, 24430, Србија","address":{"town":"Ада","city":"Општина Ада","county":"Севернобанатски управни округ","ISO3166-2-lvl6":"RS-03","state":"Војводина","ISO3166-2-lvl4":"RS-VO","postcode":"24430","country":"Србија","country_code":"rs"},"population":9564,"osm_type":"node","osm_id":347730664,"type":"town","location":[20.133407,45.7969129],"bbox":[20.093407,45.7569129,20.173407,45.8369129]}
{"name":"Чока","other_names":{"name:de":"Tschoka","name:en":"Coka","name:hu":"Csóka","name:ru":"Чока","name:sr":"Чока","name:sr-Latn":"Čoka"},"display_name":"Чока, Општина Чока, Севернобанатски управни округ, Војводина, 23320, Србија","address":{"town":"Чока","city":"Општина Чока","county":"Севернобанатски управни округ","ISO3166-2-lvl6":"RS-03","state":"Војводина","ISO3166-2-lvl4":"RS-VO","postcode":"23320","country":"Србија","country_code":"rs"},"population":4028,"osm_type":"node","osm_id":878610646,"type":"town","location":[20.1399443,45.9411228],"bbox":[20.0999443,45.9011228,20.1799443,45.9811228]}
{"name":"Сента","other_names":{"name:de":"Zenta","name:en":"Senta","name:hu":"Zenta","name:ru":"Сента","name:sr":"Сента","old_name":"Zyntharew","name:sr-Latn":"Senta"},"display_name":"Сента, Општина Сента, Севернобанатски управни округ, Војводина, 24400, Србија","address":{"town":"Сента","city":"Општина Сента","county":"Севернобанатски управни округ","ISO3166-2-lvl6":"RS-03","state":"Војводина","ISO3166-2-lvl4":"RS-VO","postcode":"24400","country":"Србија","country_code":"rs"},"population":20363,"osm_type":"node","osm_id":347730618,"type":"town","location":[20.0901597,45.9312407],"bbox":[20.0501597,45.8912407,20.1301597,45.9712407]}
{"name":"Нови Кнежевац","other_names":{"name:de":"Neu-Kanischa","name:en":"Novi Knezevac","name:hu":"Törökkanizsa","name:ru":"Нови-Кнежевац","name:sr":"Нови Кнежевац","name:sr-Latn":"Novi Kneževac"},"display_name":"Нови Кнежевац, Општина Нови Кнежевац, Севернобанатски управни округ, Војводина, 23330, Србија","address":{"town":"Нови Кнежевац","city":"Општина Нови Кнежевац","county":"Севернобанатски управни округ","ISO3166-2-lvl6":"RS-03","state":"Војводина","ISO3166-2-lvl4":"RS-VO","postcode":"23330","country":"Србија","country_code":"rs"},"population":6960,"osm_type":"node","osm_id":292826796,"type":"town","location":[20.0933532,46.0427093],"bbox":[20.0533532,46.0027093,20.1333532,46.0827093]}
{"name":"Палић","other_names":{"name:de":"Palitsch","name:en":"Palić","name:hu":"Palics","name:sr":"Палић","name:sr-Latn":"Palić"},"display_name":"Палић, Град Суботица, Севернобачки управни округ, Војводина, 24413, Србија","address":{"town":"Палић","city":"Град Суботица","county":"Севернобачки управни округ","ISO3166-2-lvl6":"RS-01","state":"Војводина","ISO3166-2-lvl4":"RS-VO","postcode":"24413","country":"Србија","country_code":"rs"},"population":7771,"osm_type":"node","osm_id":291980402,"type":"town","location":[19.7634537,46.1022848],"bbox":[19.7234537,46.0622848,19.8034537,46.1422848]}
{"name":"Кањижа","other_names":{"name:de":"Alt-Kanischa","name:en":"Kanjiža","name:hu":"Magyarkanizsa","name:ru":"Канижа","name:sr":"Кањижа","name:sr-Latn":"Kanjiža"},"display_name":"Кањижа, Општина Кањижа, Севернобанатски управни округ, Војводина, 24420, Србија","address":{"town":"Кањижа","city":"Општина Кањижа","county":"Севернобанатски управни округ","ISO3166-2-lvl6":"RS-03","state":"Војводина","ISO3166-2-lvl4":"RS-VO","postcode":"24420","country":"Србија","country_code":"rs"},"population":10193,"osm_type":"node","osm_id":291980717,"type":"town","location":[20.0516482,46.0644447],"bbox":[20.0116482,46.0244447,20.0916482,46.1044447]}